{"type":"FeatureCollection","features":[{"type":"Feature","properties":{"cod_catast":"1703540101018001000","area_terre":"2684.5000","area_contr":"332.7000","descr":"Áreas verdes","nombre":"Propiedad Municipal","tipologia":"BANCO DE SUELO","parroquia":"EL CHAUPI","ambito":"Urbano","category":"banco-suelo","source":"GAD Mejía | banco de suelo municipal"},"geometry":{"type":"Point","coordinates":[-78.641872,-0.601982]}},{"type":"Feature","properties":{"cod_catast":"1703500106027002000","area_terre":"8862.7500","area_contr":"","descr":"Áreas verdes","nombre":"Propiedad Municipal","tipologia":"BANCO DE SUELO","parroquia":"MACHACHI","ambito":"Urbano","category":"banco-suelo","source":"GAD Mejía | banco de suelo municipal"},"geometry":{"type":"Point","coordinates":[-78.567505,-0.507678]}},{"type":"Feature","properties":{"cod_catast":"1703500101045001000","area_terre":"4554.9300","area_contr":"","descr":"Áreas verdes","nombre":"Propiedad Municipal","tipologia":"BANCO DE SUELO","parroquia":"MACHACHI","ambito":"Urbano","category":"banco-suelo","source":"GAD Mejía | banco de suelo municipal"},"geometry":{"type":"Point","coordinates":[-78.566031,-0.51225]}},{"type":"Feature","properties":{"cod_catast":"1703500103011001000","area_terre":"29401.5400","area_contr":"427.7400","descr":"Áreas verdes","nombre":"Propiedad Municipal","tipologia":"BANCO DE SUELO","parroquia":"MACHACHI","ambito":"Urbano","category":"banco-suelo","source":"GAD Mejía | banco de suelo municipal"},"geometry":{"type":"Point","coordinates":[-78.572246,-0.516395]}},{"type":"Feature","properties":{"cod_catast":"1703500105036001000","area_terre":"50385.3000","area_contr":"2482.7100","descr":"Áreas verdes","nombre":"Propiedad Municipal","tipologia":"BANCO DE SUELO","parroquia":"MACHACHI","ambito":"Urbano","category":"banco-suelo","source":"GAD Mejía | banco de suelo municipal"},"geometry":{"type":"Point","coordinates":[-78.568096,-0.504235]}},{"type":"Feature","properties":{"cod_catast":"1703500106021016000","area_terre":"2053.1900","area_contr":"","descr":"Áreas verdes","nombre":"Propiedad Municipal","tipologia":"BANCO DE SUELO","parroquia":"MACHACHI","ambito":"Urbano","category":"banco-suelo","source":"GAD Mejía | banco de suelo municipal"},"geometry":{"type":"Point","coordinates":[-78.563988,-0.511025]}},{"type":"Feature","properties":{"cod_catast":"1703510102015057000","area_terre":"1349.9500","area_contr":"","descr":"Área verde","nombre":"Propiedad Municipal","tipologia":"BANCO DE SUELO","parroquia":"ALOAG","ambito":"Urbano","category":"banco-suelo","source":"GAD Mejía | banco de suelo municipal"},"geometry":{"type":"Point","coordinates":[-78.578513,-0.4765]}},{"type":"Feature","properties":{"cod_catast":"1703500104013011000","area_terre":"527.4300","area_contr":"","descr":"Área verde","nombre":"Propiedad Municipal","tipologia":"BANCO DE SUELO","parroquia":"MACHACHI","ambito":"Urbano","category":"banco-suelo","source":"GAD Mejía | banco de suelo municipal"},"geometry":{"type":"Point","coordinates":[-78.571271,-0.50782]}},{"type":"Feature","properties":{"cod_catast":"1703520101011014000","area_terre":"587.5700","area_contr":"","descr":"Área verde","nombre":"Propiedad Municipal","tipologia":"BANCO DE SUELO","parroquia":"ALOASÍ","ambito":"Urbano","category":"banco-suelo","source":"GAD Mejía | banco de suelo municipal"},"geometry":{"type":"Point","coordinates":[-78.581322,-0.527453]}},{"type":"Feature","properties":{"cod_catast":"1703530106176001000","area_terre":"968.4221","area_contr":"","descr":"Área verde","nombre":"Propiedad Municipal","tipologia":"BANCO DE SUELO","parroquia":"CUTUGLAHUA","ambito":"Urbano","category":"banco-suelo","source":"GAD Mejía | banco de suelo municipal"},"geometry":{"type":"Point","coordinates":[-78.566107,-0.362159]}},{"type":"Feature","properties":{"cod_catast":"1703530106110001000","area_terre":"721.8510","area_contr":"","descr":"Área verde","nombre":"Propiedad Municipal","tipologia":"BANCO DE SUELO","parroquia":"CUTUGLAHUA","ambito":"Urbano","category":"banco-suelo","source":"GAD Mejía | banco de suelo municipal"},"geometry":{"type":"Point","coordinates":[-78.567431,-0.362656]}},{"type":"Feature","properties":{"cod_catast":"","area_terre":"","area_contr":"","descr":"Área verde","nombre":"Propiedad Municipal","tipologia":"BANCO DE SUELO","parroquia":"TAMBILLO","ambito":"","category":"banco-suelo","source":"GAD Mejía | banco de suelo municipal"},"geometry":{"type":"Point","coordinates":[-78.542605,-0.405666]}},{"type":"Feature","properties":{"cod_catast":"1703500104035002000","area_terre":"1044.0000","area_contr":"","descr":"Área verde","nombre":"Propiedad Municipal","tipologia":"BANCO DE SUELO","parroquia":"MACHACHI","ambito":"Urbano","category":"banco-suelo","source":"GAD Mejía | banco de suelo municipal"},"geometry":{"type":"Point","coordinates":[-78.57213,-0.510968]}},{"type":"Feature","properties":{"cod_catast":"1703530101015009000","area_terre":"555.0100","area_contr":"","descr":"Área verde","nombre":"Propiedad Municipal","tipologia":"BANCO DE SUELO","parroquia":"CUTUGLAHUA","ambito":"Urbano","category":"banco-suelo","source":"GAD Mejía | banco de suelo municipal"},"geometry":{"type":"Point","coordinates":[-78.54808,-0.360918]}},{"type":"Feature","properties":{"cod_catast":"1703530102063008000","area_terre":"5467.8733","area_contr":"73.2308","descr":"Área verde","nombre":"Propiedad Municipal","tipologia":"BANCO DE SUELO","parroquia":"CUTUGLAHUA","ambito":"Urbano","category":"banco-suelo","source":"GAD Mejía | banco de suelo municipal"},"geometry":{"type":"Point","coordinates":[-78.533197,-0.383591]}},{"type":"Feature","properties":{"cod_catast":"1703500102058009000","area_terre":"302.9800","area_contr":"","descr":"Área verde","nombre":"Propiedad Municipal","tipologia":"BANCO DE SUELO","parroquia":"MACHACHI","ambito":"Urbano","category":"banco-suelo","source":"GAD Mejía | banco de suelo municipal"},"geometry":{"type":"Point","coordinates":[-78.570379,-0.518748]}},{"type":"Feature","properties":{"cod_catast":"1703500102064012000","area_terre":"491.4700","area_contr":"","descr":"Área verde","nombre":"Propiedad Municipal","tipologia":"BANCO DE SUELO","parroquia":"MACHACHI","ambito":"Urbano","category":"banco-suelo","source":"GAD Mejía | banco de suelo municipal"},"geometry":{"type":"Point","coordinates":[-78.559619,-0.517646]}},{"type":"Feature","properties":{"cod_catast":"1703500103020016000","area_terre":"475.0900","area_contr":"","descr":"Área verde","nombre":"Propiedad Municipal","tipologia":"BANCO DE SUELO","parroquia":"MACHACHI","ambito":"Urbano","category":"banco-suelo","source":"GAD Mejía | banco de suelo municipal"},"geometry":{"type":"Point","coordinates":[-78.572644,-0.519844]}},{"type":"Feature","properties":{"cod_catast":"1703500103044014000","area_terre":"1129.2900","area_contr":"","descr":"Área verde","nombre":"Propiedad Municipal","tipologia":"BANCO DE SUELO","parroquia":"MACHACHI","ambito":"Urbano","category":"banco-suelo","source":"GAD Mejía | banco de suelo municipal"},"geometry":{"type":"Point","coordinates":[-78.571489,-0.522125]}},{"type":"Feature","properties":{"cod_catast":"1703550103004009000","area_terre":"400.0000","area_contr":"","descr":"Área verde","nombre":"Propiedad Municipal","tipologia":"BANCO DE SUELO","parroquia":"MANUEL CORNEJO ASTORGA","ambito":"Urbano","category":"banco-suelo","source":"GAD Mejía | banco de suelo municipal"},"geometry":{"type":"Point","coordinates":[-78.794469,-0.41935]}},{"type":"Feature","properties":{"cod_catast":"1703500103044021000","area_terre":"118.6500","area_contr":"","descr":"Área verde","nombre":"Propiedad Municipal","tipologia":"BANCO DE SUELO","parroquia":"MACHACHI","ambito":"Urbano","category":"banco-suelo","source":"GAD Mejía | banco de suelo municipal"},"geometry":{"type":"Point","coordinates":[-78.572313,-0.522172]}},{"type":"Feature","properties":{"cod_catast":"1703560101059013000","area_terre":"4047.8900","area_contr":"","descr":"Área verde","nombre":"Propiedad Municipal","tipologia":"BANCO DE SUELO","parroquia":"TAMBILLO","ambito":"Urbano","category":"banco-suelo","source":"GAD Mejía | banco de suelo municipal"},"geometry":{"type":"Point","coordinates":[-78.548848,-0.404684]}},{"type":"Feature","properties":{"cod_catast":"1703560101059041000","area_terre":"1617.6900","area_contr":"","descr":"Área verde","nombre":"Propiedad Municipal","tipologia":"BANCO DE SUELO","parroquia":"TAMBILLO","ambito":"Urbano","category":"banco-suelo","source":"GAD Mejía | banco de suelo municipal"},"geometry":{"type":"Point","coordinates":[-78.549967,-0.404373]}},{"type":"Feature","properties":{"cod_catast":"1703500104013022000","area_terre":"405.3500","area_contr":"","descr":"Área verde","nombre":"Propiedad Municipal","tipologia":"BANCO DE SUELO","parroquia":"MACHACHI","ambito":"Urbano","category":"banco-suelo","source":"GAD Mejía | banco de suelo municipal"},"geometry":{"type":"Point","coordinates":[-78.570973,-0.508607]}},{"type":"Feature","properties":{"cod_catast":"1703500104021012000","area_terre":"395.3800","area_contr":"","descr":"Área verde","nombre":"Propiedad Municipal","tipologia":"BANCO DE SUELO","parroquia":"MACHACHI","ambito":"Urbano","category":"banco-suelo","source":"GAD Mejía | banco de suelo municipal"},"geometry":{"type":"Point","coordinates":[-78.571698,-0.50855]}},{"type":"Feature","properties":{"cod_catast":"1703530105116001000","area_terre":"12183.5990","area_contr":"","descr":"Área verde","nombre":"Propiedad Municipal","tipologia":"BANCO DE SUELO","parroquia":"CUTUGLAHUA","ambito":"Urbano","category":"banco-suelo","source":"GAD Mejía | banco de suelo municipal"},"geometry":{"type":"Point","coordinates":[-78.56957,-0.373301]}},{"type":"Feature","properties":{"cod_catast":"1703500104036003000","area_terre":"794.2900","area_contr":"","descr":"Área verde","nombre":"Propiedad Municipal","tipologia":"BANCO DE SUELO","parroquia":"MACHACHI","ambito":"Urbano","category":"banco-suelo","source":"GAD Mejía | banco de suelo municipal"},"geometry":{"type":"Point","coordinates":[-78.571331,-0.510273]}},{"type":"Feature","properties":{"cod_catast":"1703500104048001000","area_terre":"619.8500","area_contr":"","descr":"Área verde","nombre":"Propiedad Municipal","tipologia":"BANCO DE SUELO","parroquia":"MACHACHI","ambito":"Urbano","category":"banco-suelo","source":"GAD Mejía | banco de suelo municipal"},"geometry":{"type":"Point","coordinates":[-78.572381,-0.512344]}},{"type":"Feature","properties":{"cod_catast":"1703500103046025000","area_terre":"180.0000","area_contr":"","descr":"Área verde","nombre":"Propiedad Municipal","tipologia":"BANCO DE SUELO","parroquia":"MACHACHI","ambito":"Urbano","category":"banco-suelo","source":"GAD Mejía | banco de suelo municipal"},"geometry":{"type":"Point","coordinates":[-78.572327,-0.519744]}},{"type":"Feature","properties":{"cod_catast":"1703500104069001000","area_terre":"933.9500","area_contr":"","descr":"Área verde","nombre":"Propiedad Municipal","tipologia":"BANCO DE SUELO","parroquia":"MACHACHI","ambito":"Urbano","category":"banco-suelo","source":"GAD Mejía | banco de suelo municipal"},"geometry":{"type":"Point","coordinates":[-78.572211,-0.503649]}},{"type":"Feature","properties":{"cod_catast":"1703500104073001000","area_terre":"941.2800","area_contr":"","descr":"Área verde","nombre":"Propiedad Municipal","tipologia":"BANCO DE SUELO","parroquia":"MACHACHI","ambito":"Urbano","category":"banco-suelo","source":"GAD Mejía | banco de suelo municipal"},"geometry":{"type":"Point","coordinates":[-78.571739,-0.510586]}},{"type":"Feature","properties":{"cod_catast":"1703500104074001000","area_terre":"1547.8800","area_contr":"","descr":"Área verde","nombre":"Propiedad Municipal","tipologia":"BANCO DE SUELO","parroquia":"MACHACHI","ambito":"Urbano","category":"banco-suelo","source":"GAD Mejía | banco de suelo municipal"},"geometry":{"type":"Point","coordinates":[-78.572405,-0.511473]}},{"type":"Feature","properties":{"cod_catast":"1703530103003036000","area_terre":"6768.2900","area_contr":"","descr":"Área verde","nombre":"Propiedad Municipal","tipologia":"BANCO DE SUELO","parroquia":"CUTUGLAHUA","ambito":"Urbano","category":"banco-suelo","source":"GAD Mejía | banco de suelo municipal"},"geometry":{"type":"Point","coordinates":[-78.544721,-0.379001]}},{"type":"Feature","properties":{"cod_catast":"1703500105024056000","area_terre":"2575.6700","area_contr":"","descr":"Área verde","nombre":"Propiedad Municipal","tipologia":"BANCO DE SUELO","parroquia":"MACHACHI","ambito":"Urbano","category":"banco-suelo","source":"GAD Mejía | banco de suelo municipal"},"geometry":{"type":"Point","coordinates":[-78.564387,-0.501998]}},{"type":"Feature","properties":{"cod_catast":"1703530104042010000","area_terre":"1439.0000","area_contr":"","descr":"Área verde","nombre":"Propiedad Municipal","tipologia":"BANCO DE SUELO","parroquia":"CUTUGLAHUA","ambito":"Urbano","category":"banco-suelo","source":"GAD Mejía | banco de suelo municipal"},"geometry":{"type":"Point","coordinates":[-78.551447,-0.385993]}},{"type":"Feature","properties":{"cod_catast":"1703500102057066000","area_terre":"949.1900","area_contr":"","descr":"Área verde","nombre":"Propiedad Municipal","tipologia":"BANCO DE SUELO","parroquia":"MACHACHI","ambito":"Urbano","category":"banco-suelo","source":"GAD Mejía | banco de suelo municipal"},"geometry":{"type":"Point","coordinates":[-78.56969,-0.517385]}},{"type":"Feature","properties":{"cod_catast":"1703500105068097000","area_terre":"417.3600","area_contr":"","descr":"Área verde","nombre":"Propiedad Municipal","tipologia":"BANCO DE SUELO","parroquia":"MACHACHI","ambito":"Urbano","category":"banco-suelo","source":"GAD Mejía | banco de suelo municipal"},"geometry":{"type":"Point","coordinates":[-78.57003,-0.496176]}},{"type":"Feature","properties":{"cod_catast":"1703530105079001000","area_terre":"4020.1426","area_contr":"","descr":"Área verde","nombre":"Propiedad Municipal","tipologia":"BANCO DE SUELO","parroquia":"CUTUGLAHUA","ambito":"Urbano","category":"banco-suelo","source":"GAD Mejía | banco de suelo municipal"},"geometry":{"type":"Point","coordinates":[-78.567391,-0.373799]}},{"type":"Feature","properties":{"cod_catast":"1703530105081043000","area_terre":"7120.0493","area_contr":"","descr":"Área verde","nombre":"Propiedad Municipal","tipologia":"BANCO DE SUELO","parroquia":"CUTUGLAHUA","ambito":"Urbano","category":"banco-suelo","source":"GAD Mejía | banco de suelo municipal"},"geometry":{"type":"Point","coordinates":[-78.568254,-0.374782]}},{"type":"Feature","properties":{"cod_catast":"1703530105072013000","area_terre":"1083.9258","area_contr":"","descr":"Área verde","nombre":"Propiedad Municipal","tipologia":"BANCO DE SUELO","parroquia":"CUTUGLAHUA","ambito":"Urbano","category":"banco-suelo","source":"GAD Mejía | banco de suelo municipal"},"geometry":{"type":"Point","coordinates":[-78.565187,-0.373614]}},{"type":"Feature","properties":{"cod_catast":"1703570104010014000","area_terre":"143.6900","area_contr":"","descr":"Área verde","nombre":"Propiedad Municipal","tipologia":"BANCO DE SUELO","parroquia":"UYUMBICHO","ambito":"Urbano","category":"banco-suelo","source":"GAD Mejía | banco de suelo municipal"},"geometry":{"type":"Point","coordinates":[-78.524119,-0.386125]}},{"type":"Feature","properties":{"cod_catast":"1703530106172035000","area_terre":"13408.4400","area_contr":"","descr":"Área verde","nombre":"Propiedad Municipal","tipologia":"BANCO DE SUELO","parroquia":"CUTUGLAHUA","ambito":"Urbano","category":"banco-suelo","source":"GAD Mejía | banco de suelo municipal"},"geometry":{"type":"Point","coordinates":[-78.569131,-0.360564]}},{"type":"Feature","properties":{"cod_catast":"1703500107007029000","area_terre":"367.6574","area_contr":"","descr":"Área verde","nombre":"Propiedad Municipal","tipologia":"BANCO DE SUELO","parroquia":"MACHACHI","ambito":"Urbano","category":"banco-suelo","source":"GAD Mejía | banco de suelo municipal"},"geometry":{"type":"Point","coordinates":[-78.55756,-0.499159]}},{"type":"Feature","properties":{"cod_catast":"1703520101059005000","area_terre":"621.7902","area_contr":"","descr":"Área verde","nombre":"Propiedad Municipal","tipologia":"BANCO DE SUELO","parroquia":"ALOASÍ","ambito":"Urbano","category":"banco-suelo","source":"GAD Mejía | banco de suelo municipal"},"geometry":{"type":"Point","coordinates":[-78.582427,-0.520869]}},{"type":"Feature","properties":{"cod_catast":"1703500106041002000","area_terre":"4119.9400","area_contr":"","descr":"Área verde","nombre":"Propiedad Municipal","tipologia":"BANCO DE SUELO","parroquia":"MACHACHI","ambito":"Urbano","category":"banco-suelo","source":"GAD Mejía | banco de suelo municipal"},"geometry":{"type":"Point","coordinates":[-78.560151,-0.505755]}},{"type":"Feature","properties":{"cod_catast":"1703500107062001000","area_terre":"3200.6000","area_contr":"","descr":"Área verde","nombre":"Propiedad Municipal","tipologia":"BANCO DE SUELO","parroquia":"MACHACHI","ambito":"Urbano","category":"banco-suelo","source":"GAD Mejía | banco de suelo municipal"},"geometry":{"type":"Point","coordinates":[-78.55807,-0.499875]}},{"type":"Feature","properties":{"cod_catast":"1703530105035007000","area_terre":"8129.0200","area_contr":"","descr":"Área verde","nombre":"Propiedad Municipal","tipologia":"BANCO DE SUELO","parroquia":"CUTUGLAHUA","ambito":"Urbano","category":"banco-suelo","source":"GAD Mejía | banco de suelo municipal"},"geometry":{"type":"Point","coordinates":[-78.563729,-0.374931]}},{"type":"Feature","properties":{"cod_catast":"1703500105059004000","area_terre":"194.7000","area_contr":"","descr":"Área verde","nombre":"Propiedad Municipal","tipologia":"BANCO DE SUELO","parroquia":"MACHACHI","ambito":"Urbano","category":"banco-suelo","source":"GAD Mejía | banco de suelo municipal"},"geometry":{"type":"Point","coordinates":[-78.567852,-0.506044]}},{"type":"Feature","properties":{"cod_catast":"1703560102033001000","area_terre":"3145.6596","area_contr":"114.0794","descr":"Área verde","nombre":"Propiedad Municipal","tipologia":"BANCO DE SUELO","parroquia":"TAMBILLO","ambito":"Urbano","category":"banco-suelo","source":"GAD Mejía | banco de suelo municipal"},"geometry":{"type":"Point","coordinates":[-78.536101,-0.405108]}},{"type":"Feature","properties":{"cod_catast":"1703500108013037000","area_terre":"668.5700","area_contr":"","descr":"Área verde","nombre":"Propiedad Municipal","tipologia":"BANCO DE SUELO","parroquia":"MACHACHI","ambito":"Urbano","category":"banco-suelo","source":"GAD Mejía | banco de suelo municipal"},"geometry":{"type":"Point","coordinates":[-78.561286,-0.529684]}},{"type":"Feature","properties":{"cod_catast":"1703520101047014000","area_terre":"364.8040","area_contr":"","descr":"Área verde","nombre":"Propiedad Municipal","tipologia":"BANCO DE SUELO","parroquia":"ALOASÍ","ambito":"Urbano","category":"banco-suelo","source":"GAD Mejía | banco de suelo municipal"},"geometry":{"type":"Point","coordinates":[-78.580263,-0.524006]}},{"type":"Feature","properties":{"cod_catast":"1703510104008005000","area_terre":"1950.8900","area_contr":"","descr":"Área verde","nombre":"Propiedad Municipal","tipologia":"BANCO DE SUELO","parroquia":"ALOAG","ambito":"Urbano","category":"banco-suelo","source":"GAD Mejía | banco de suelo municipal"},"geometry":{"type":"Point","coordinates":[-78.589518,-0.474365]}},{"type":"Feature","properties":{"cod_catast":"1703510105012055000","area_terre":"1895.8844","area_contr":"68.1800","descr":"Área verde","nombre":"Propiedad Municipal","tipologia":"BANCO DE SUELO","parroquia":"ALOAG","ambito":"Urbano","category":"banco-suelo","source":"GAD Mejía | banco de suelo municipal"},"geometry":{"type":"Point","coordinates":[-78.588101,-0.466908]}},{"type":"Feature","properties":{"cod_catast":"1703510105012052000","area_terre":"450.0000","area_contr":"","descr":"Área verde","nombre":"Propiedad Municipal","tipologia":"BANCO DE SUELO","parroquia":"ALOAG","ambito":"Urbano","category":"banco-suelo","source":"GAD Mejía | banco de suelo municipal"},"geometry":{"type":"Point","coordinates":[-78.587884,-0.466771]}},{"type":"Feature","properties":{"cod_catast":"1703510105013001000","area_terre":"2745.5900","area_contr":"","descr":"Área verde","nombre":"Propiedad Municipal","tipologia":"BANCO DE SUELO","parroquia":"ALOAG","ambito":"Urbano","category":"banco-suelo","source":"GAD Mejía | banco de suelo municipal"},"geometry":{"type":"Point","coordinates":[-78.583087,-0.464527]}},{"type":"Feature","properties":{"cod_catast":"1703520101039040000","area_terre":"2478.6545","area_contr":"","descr":"Área verde","nombre":"Propiedad Municipal","tipologia":"BANCO DE SUELO","parroquia":"ALOASÍ","ambito":"Urbano","category":"banco-suelo","source":"GAD Mejía | banco de suelo municipal"},"geometry":{"type":"Point","coordinates":[-78.577821,-0.517628]}},{"type":"Feature","properties":{"cod_catast":"1703520101008041000","area_terre":"417.5900","area_contr":"","descr":"Área verde","nombre":"Propiedad Municipal","tipologia":"BANCO DE SUELO","parroquia":"ALOASÍ","ambito":"Urbano","category":"banco-suelo","source":"GAD Mejía | banco de suelo municipal"},"geometry":{"type":"Point","coordinates":[-78.578387,-0.518667]}},{"type":"Feature","properties":{"cod_catast":"1703520101039035000","area_terre":"940.6000","area_contr":"","descr":"Área verde","nombre":"Propiedad Municipal","tipologia":"BANCO DE SUELO","parroquia":"ALOASÍ","ambito":"Urbano","category":"banco-suelo","source":"GAD Mejía | banco de suelo municipal"},"geometry":{"type":"Point","coordinates":[-78.578555,-0.517582]}},{"type":"Feature","properties":{"cod_catast":"1703520101042006000","area_terre":"278.1300","area_contr":"","descr":"Área verde","nombre":"Propiedad Municipal","tipologia":"BANCO DE SUELO","parroquia":"ALOASÍ","ambito":"Urbano","category":"banco-suelo","source":"GAD Mejía | banco de suelo municipal"},"geometry":{"type":"Point","coordinates":[-78.578028,-0.518022]}},{"type":"Feature","properties":{"cod_catast":"1703520101086007000","area_terre":"209.0259","area_contr":"","descr":"Área verde","nombre":"Propiedad Municipal","tipologia":"BANCO DE SUELO","parroquia":"ALOASÍ","ambito":"Urbano","category":"banco-suelo","source":"GAD Mejía | banco de suelo municipal"},"geometry":{"type":"Point","coordinates":[-78.580466,-0.523684]}},{"type":"Feature","properties":{"cod_catast":"1703550102001001000","area_terre":"1449.6659","area_contr":"","descr":"Área verde","nombre":"Propiedad Municipal","tipologia":"BANCO DE SUELO","parroquia":"MANUEL CORNEJO ASTORGA","ambito":"Urbano","category":"banco-suelo","source":"GAD Mejía | banco de suelo municipal"},"geometry":{"type":"Point","coordinates":[-78.798684,-0.414388]}},{"type":"Feature","properties":{"cod_catast":"1703520102004001000","area_terre":"480.8600","area_contr":"","descr":"Área verde","nombre":"Propiedad Municipal","tipologia":"BANCO DE SUELO","parroquia":"ALOASÍ","ambito":"Urbano","category":"banco-suelo","source":"GAD Mejía | banco de suelo municipal"},"geometry":{"type":"Point","coordinates":[-78.576134,-0.505863]}},{"type":"Feature","properties":{"cod_catast":"1703530101005041000","area_terre":"2526.3071","area_contr":"250.4899","descr":"Área verde","nombre":"Propiedad Municipal","tipologia":"BANCO DE SUELO","parroquia":"CUTUGLAHUA","ambito":"Urbano","category":"banco-suelo","source":"GAD Mejía | banco de suelo municipal"},"geometry":{"type":"Point","coordinates":[-78.548479,-0.365303]}},{"type":"Feature","properties":{"cod_catast":"1703530101015008000","area_terre":"515.8300","area_contr":"99.9900","descr":"Área verde","nombre":"Propiedad Municipal","tipologia":"BANCO DE SUELO","parroquia":"CUTUGLAHUA","ambito":"Urbano","category":"banco-suelo","source":"GAD Mejía | banco de suelo municipal"},"geometry":{"type":"Point","coordinates":[-78.548128,-0.361043]}},{"type":"Feature","properties":{"cod_catast":"1703530101020001000","area_terre":"1874.6600","area_contr":"","descr":"Área verde","nombre":"Propiedad Municipal","tipologia":"BANCO DE SUELO","parroquia":"CUTUGLAHUA","ambito":"Urbano","category":"banco-suelo","source":"GAD Mejía | banco de suelo municipal"},"geometry":{"type":"Point","coordinates":[-78.546345,-0.364574]}},{"type":"Feature","properties":{"cod_catast":"1703530101035003000","area_terre":"3090.8200","area_contr":"","descr":"Área verde","nombre":"Propiedad Municipal","tipologia":"BANCO DE SUELO","parroquia":"CUTUGLAHUA","ambito":"Urbano","category":"banco-suelo","source":"GAD Mejía | banco de suelo municipal"},"geometry":{"type":"Point","coordinates":[-78.545216,-0.362576]}},{"type":"Feature","properties":{"cod_catast":"1703530103048034000","area_terre":"9593.9100","area_contr":"112.5000","descr":"Área verde","nombre":"Propiedad Municipal","tipologia":"BANCO DE SUELO","parroquia":"CUTUGLAHUA","ambito":"Urbano","category":"banco-suelo","source":"GAD Mejía | banco de suelo municipal"},"geometry":{"type":"Point","coordinates":[-78.539547,-0.390238]}},{"type":"Feature","properties":{"cod_catast":"","area_terre":"","area_contr":"","descr":"Área verde","nombre":"Propiedad Municipal","tipologia":"BANCO DE SUELO","parroquia":"CUTUGLAHUA","ambito":"","category":"banco-suelo","source":"GAD Mejía | banco de suelo municipal"},"geometry":{"type":"Point","coordinates":[-78.545333,-0.363797]}},{"type":"Feature","properties":{"cod_catast":"1703530101050006000","area_terre":"199.7100","area_contr":"","descr":"Área verde","nombre":"Propiedad Municipal","tipologia":"BANCO DE SUELO","parroquia":"CUTUGLAHUA","ambito":"Urbano","category":"banco-suelo","source":"GAD Mejía | banco de suelo municipal"},"geometry":{"type":"Point","coordinates":[-78.546364,-0.367118]}},{"type":"Feature","properties":{"cod_catast":"1703530106106002000","area_terre":"4358.8822","area_contr":"","descr":"Área verde","nombre":"Propiedad Municipal","tipologia":"BANCO DE SUELO","parroquia":"CUTUGLAHUA","ambito":"Urbano","category":"banco-suelo","source":"GAD Mejía | banco de suelo municipal"},"geometry":{"type":"Point","coordinates":[-78.569331,-0.361459]}},{"type":"Feature","properties":{"cod_catast":"1703530104044031000","area_terre":"32311.8100","area_contr":"","descr":"Área verde","nombre":"Propiedad Municipal","tipologia":"BANCO DE SUELO","parroquia":"CUTUGLAHUA","ambito":"Urbano","category":"banco-suelo","source":"GAD Mejía | banco de suelo municipal"},"geometry":{"type":"Point","coordinates":[-78.555277,-0.387489]}},{"type":"Feature","properties":{"cod_catast":"1703530103038004000","area_terre":"5426.6621","area_contr":"69.4116","descr":"Área verde","nombre":"Propiedad Municipal","tipologia":"BANCO DE SUELO","parroquia":"CUTUGLAHUA","ambito":"Urbano","category":"banco-suelo","source":"GAD Mejía | banco de suelo municipal"},"geometry":{"type":"Point","coordinates":[-78.547468,-0.379988]}},{"type":"Feature","properties":{"cod_catast":"1703530102039004000","area_terre":"13542.2757","area_contr":"","descr":"Área verde","nombre":"Propiedad Municipal","tipologia":"BANCO DE SUELO","parroquia":"CUTUGLAHUA","ambito":"Urbano","category":"banco-suelo","source":"GAD Mejía | banco de suelo municipal"},"geometry":{"type":"Point","coordinates":[-78.53712,-0.378061]}},{"type":"Feature","properties":{"cod_catast":"1703530102063007000","area_terre":"8357.8735","area_contr":"120.0002","descr":"Área verde","nombre":"Propiedad Municipal","tipologia":"BANCO DE SUELO","parroquia":"CUTUGLAHUA","ambito":"Urbano","category":"banco-suelo","source":"GAD Mejía | banco de suelo municipal"},"geometry":{"type":"Point","coordinates":[-78.532619,-0.383094]}},{"type":"Feature","properties":{"cod_catast":"1703530104044030000","area_terre":"14993.0700","area_contr":"","descr":"Área verde","nombre":"Propiedad Municipal","tipologia":"BANCO DE SUELO","parroquia":"CUTUGLAHUA","ambito":"Urbano","category":"banco-suelo","source":"GAD Mejía | banco de suelo municipal"},"geometry":{"type":"Point","coordinates":[-78.553728,-0.388151]}},{"type":"Feature","properties":{"cod_catast":"1703530102101001000","area_terre":"1570.1000","area_contr":"","descr":"Área verde","nombre":"Propiedad Municipal","tipologia":"BANCO DE SUELO","parroquia":"CUTUGLAHUA","ambito":"Urbano","category":"banco-suelo","source":"GAD Mejía | banco de suelo municipal"},"geometry":{"type":"Point","coordinates":[-78.545195,-0.378565]}},{"type":"Feature","properties":{"cod_catast":"1703530103003025000","area_terre":"4416.8993","area_contr":"","descr":"Área verde","nombre":"Propiedad Municipal","tipologia":"BANCO DE SUELO","parroquia":"CUTUGLAHUA","ambito":"Urbano","category":"banco-suelo","source":"GAD Mejía | banco de suelo municipal"},"geometry":{"type":"Point","coordinates":[-78.54529,-0.381115]}},{"type":"Feature","properties":{"cod_catast":"1703530103003041000","area_terre":"3228.0500","area_contr":"","descr":"Área verde","nombre":"Propiedad Municipal","tipologia":"BANCO DE SUELO","parroquia":"CUTUGLAHUA","ambito":"Urbano","category":"banco-suelo","source":"GAD Mejía | banco de suelo municipal"},"geometry":{"type":"Point","coordinates":[-78.543797,-0.379367]}},{"type":"Feature","properties":{"cod_catast":"1703530103016001000","area_terre":"18358.9700","area_contr":"169.5400","descr":"Área verde","nombre":"Propiedad Municipal","tipologia":"BANCO DE SUELO","parroquia":"CUTUGLAHUA","ambito":"Urbano","category":"banco-suelo","source":"GAD Mejía | banco de suelo municipal"},"geometry":{"type":"Point","coordinates":[-78.534447,-0.385014]}},{"type":"Feature","properties":{"cod_catast":"1703530106168001000","area_terre":"62.4514","area_contr":"","descr":"Área verde","nombre":"Propiedad Municipal","tipologia":"BANCO DE SUELO","parroquia":"CUTUGLAHUA","ambito":"Urbano","category":"banco-suelo","source":"GAD Mejía | banco de suelo municipal"},"geometry":{"type":"Point","coordinates":[-78.563891,-0.364874]}},{"type":"Feature","properties":{"cod_catast":"1703530103035001000","area_terre":"8920.3005","area_contr":"","descr":"Área verde","nombre":"Propiedad Municipal","tipologia":"BANCO DE SUELO","parroquia":"CUTUGLAHUA","ambito":"Urbano","category":"banco-suelo","source":"GAD Mejía | banco de suelo municipal"},"geometry":{"type":"Point","coordinates":[-78.550031,-0.38032]}},{"type":"Feature","properties":{"cod_catast":"1703530103038007000","area_terre":"5854.6100","area_contr":"","descr":"Área verde","nombre":"Propiedad Municipal","tipologia":"BANCO DE SUELO","parroquia":"CUTUGLAHUA","ambito":"Urbano","category":"banco-suelo","source":"GAD Mejía | banco de suelo municipal"},"geometry":{"type":"Point","coordinates":[-78.54801,-0.380991]}},{"type":"Feature","properties":{"cod_catast":"1703530103040016000","area_terre":"4132.6132","area_contr":"","descr":"Área verde","nombre":"Propiedad Municipal","tipologia":"BANCO DE SUELO","parroquia":"CUTUGLAHUA","ambito":"Urbano","category":"banco-suelo","source":"GAD Mejía | banco de suelo municipal"},"geometry":{"type":"Point","coordinates":[-78.545264,-0.381644]}},{"type":"Feature","properties":{"cod_catast":"1703530103041001000","area_terre":"64148.7700","area_contr":"417.9400","descr":"Área verde","nombre":"Propiedad Municipal","tipologia":"BANCO DE SUELO","parroquia":"CUTUGLAHUA","ambito":"Urbano","category":"banco-suelo","source":"GAD Mejía | banco de suelo municipal"},"geometry":{"type":"Point","coordinates":[-78.542721,-0.38304]}},{"type":"Feature","properties":{"cod_catast":"1703530103049012000","area_terre":"948.5391","area_contr":"","descr":"Área verde","nombre":"Propiedad Municipal","tipologia":"BANCO DE SUELO","parroquia":"CUTUGLAHUA","ambito":"Urbano","category":"banco-suelo","source":"GAD Mejía | banco de suelo municipal"},"geometry":{"type":"Point","coordinates":[-78.538182,-0.384956]}},{"type":"Feature","properties":{"cod_catast":"1703530103059071000","area_terre":"4430.6857","area_contr":"51.2041","descr":"Área verde","nombre":"Propiedad Municipal","tipologia":"BANCO DE SUELO","parroquia":"CUTUGLAHUA","ambito":"Urbano","category":"banco-suelo","source":"GAD Mejía | banco de suelo municipal"},"geometry":{"type":"Point","coordinates":[-78.548485,-0.384562]}},{"type":"Feature","properties":{"cod_catast":"1703530103072001000","area_terre":"2003.5992","area_contr":"116.9699","descr":"Área verde","nombre":"Propiedad Municipal","tipologia":"BANCO DE SUELO","parroquia":"CUTUGLAHUA","ambito":"Urbano","category":"banco-suelo","source":"GAD Mejía | banco de suelo municipal"},"geometry":{"type":"Point","coordinates":[-78.539998,-0.38831]}},{"type":"Feature","properties":{"cod_catast":"1703530103075024000","area_terre":"3504.2092","area_contr":"","descr":"Área verde","nombre":"Propiedad Municipal","tipologia":"BANCO DE SUELO","parroquia":"CUTUGLAHUA","ambito":"Urbano","category":"banco-suelo","source":"GAD Mejía | banco de suelo municipal"},"geometry":{"type":"Point","coordinates":[-78.547075,-0.388775]}},{"type":"Feature","properties":{"cod_catast":"1703530103076015000","area_terre":"2974.4800","area_contr":"92.4400","descr":"Área verde","nombre":"Propiedad Municipal","tipologia":"BANCO DE SUELO","parroquia":"CUTUGLAHUA","ambito":"Urbano","category":"banco-suelo","source":"GAD Mejía | banco de suelo municipal"},"geometry":{"type":"Point","coordinates":[-78.5464,-0.384074]}},{"type":"Feature","properties":{"cod_catast":"1703530104011004000","area_terre":"4723.8000","area_contr":"83.9200","descr":"Área verde","nombre":"Propiedad Municipal","tipologia":"BANCO DE SUELO","parroquia":"CUTUGLAHUA","ambito":"Urbano","category":"banco-suelo","source":"GAD Mejía | banco de suelo municipal"},"geometry":{"type":"Point","coordinates":[-78.553967,-0.383096]}},{"type":"Feature","properties":{"cod_catast":"1703500103062019000","area_terre":"542.3300","area_contr":"","descr":"Área verde","nombre":"Propiedad Municipal","tipologia":"BANCO DE SUELO","parroquia":"MACHACHI","ambito":"Urbano","category":"banco-suelo","source":"GAD Mejía | banco de suelo municipal"},"geometry":{"type":"Point","coordinates":[-78.576855,-0.521133]}},{"type":"Feature","properties":{"cod_catast":"","area_terre":"","area_contr":"","descr":"Área verde","nombre":"Propiedad Municipal","tipologia":"BANCO DE SUELO","parroquia":"CUTUGLAHUA","ambito":"","category":"banco-suelo","source":"GAD Mejía | banco de suelo municipal"},"geometry":{"type":"Point","coordinates":[-78.54683,-0.367236]}},{"type":"Feature","properties":{"cod_catast":"1703530102024010000","area_terre":"4949.7885","area_contr":"","descr":"Área verde","nombre":"Propiedad Municipal","tipologia":"BANCO DE SUELO","parroquia":"CUTUGLAHUA","ambito":"Urbano","category":"banco-suelo","source":"GAD Mejía | banco de suelo municipal"},"geometry":{"type":"Point","coordinates":[-78.547899,-0.375375]}},{"type":"Feature","properties":{"cod_catast":"1703520102069020000","area_terre":"539.7444","area_contr":"","descr":"Área verde","nombre":"Propiedad Municipal","tipologia":"BANCO DE SUELO","parroquia":"ALOASÍ","ambito":"Urbano","category":"banco-suelo","source":"GAD Mejía | banco de suelo municipal"},"geometry":{"type":"Point","coordinates":[-78.574384,-0.507277]}},{"type":"Feature","properties":{"cod_catast":"1703530106125002000","area_terre":"1121.9800","area_contr":"120.0000","descr":"Área verde","nombre":"Propiedad Municipal","tipologia":"BANCO DE SUELO","parroquia":"CUTUGLAHUA","ambito":"Urbano","category":"banco-suelo","source":"GAD Mejía | banco de suelo municipal"},"geometry":{"type":"Point","coordinates":[-78.565033,-0.362927]}},{"type":"Feature","properties":{"cod_catast":"1703510104004008000","area_terre":"466.5500","area_contr":"","descr":"Área verde","nombre":"Propiedad Municipal","tipologia":"BANCO DE SUELO","parroquia":"ALOAG","ambito":"Urbano","category":"banco-suelo","source":"GAD Mejía | banco de suelo municipal"},"geometry":{"type":"Point","coordinates":[-78.588147,-0.47531]}},{"type":"Feature","properties":{"cod_catast":"1703500102065011000","area_terre":"1292.8400","area_contr":"","descr":"Área verde","nombre":"Propiedad Municipal","tipologia":"BANCO DE SUELO","parroquia":"MACHACHI","ambito":"Urbano","category":"banco-suelo","source":"GAD Mejía | banco de suelo municipal"},"geometry":{"type":"Point","coordinates":[-78.560727,-0.515847]}},{"type":"Feature","properties":{"cod_catast":"1703510105005009000","area_terre":"5838.4400","area_contr":"","descr":"Área verde","nombre":"Propiedad Municipal","tipologia":"BANCO DE SUELO","parroquia":"ALOAG","ambito":"Urbano","category":"banco-suelo","source":"GAD Mejía | banco de suelo municipal"},"geometry":{"type":"Point","coordinates":[-78.587183,-0.465638]}},{"type":"Feature","properties":{"cod_catast":"1703500102062073000","area_terre":"446.3500","area_contr":"","descr":"Área verde","nombre":"Propiedad Municipal","tipologia":"BANCO DE SUELO","parroquia":"MACHACHI","ambito":"Urbano","category":"banco-suelo","source":"GAD Mejía | banco de suelo municipal"},"geometry":{"type":"Point","coordinates":[-78.560642,-0.517734]}},{"type":"Feature","properties":{"cod_catast":"1703520103031020000","area_terre":"10623.5400","area_contr":"1436.6500","descr":"Área verde","nombre":"Propiedad Municipal","tipologia":"BANCO DE SUELO","parroquia":"ALOASÍ","ambito":"Urbano","category":"banco-suelo","source":"GAD Mejía | banco de suelo municipal"},"geometry":{"type":"Point","coordinates":[-78.586553,-0.516903]}},{"type":"Feature","properties":{"cod_catast":"1703510103034011000","area_terre":"101.0000","area_contr":"","descr":"Área verde","nombre":"Propiedad Municipal","tipologia":"BANCO DE SUELO","parroquia":"ALOAG","ambito":"Urbano","category":"banco-suelo","source":"GAD Mejía | banco de suelo municipal"},"geometry":{"type":"Point","coordinates":[-78.590288,-0.470706]}},{"type":"Feature","properties":{"cod_catast":"1703530106126017000","area_terre":"10818.1279","area_contr":"","descr":"Área verde","nombre":"Propiedad Municipal","tipologia":"BANCO DE SUELO","parroquia":"CUTUGLAHUA","ambito":"Urbano","category":"banco-suelo","source":"GAD Mejía | banco de suelo municipal"},"geometry":{"type":"Point","coordinates":[-78.564779,-0.36422]}},{"type":"Feature","properties":{"cod_catast":"1703510105010010000","area_terre":"247.7000","area_contr":"","descr":"Área verde","nombre":"Propiedad Municipal","tipologia":"BANCO DE SUELO","parroquia":"ALOAG","ambito":"Urbano","category":"banco-suelo","source":"GAD Mejía | banco de suelo municipal"},"geometry":{"type":"Point","coordinates":[-78.587579,-0.466817]}},{"type":"Feature","properties":{"cod_catast":"1703510105013006000","area_terre":"5082.0400","area_contr":"","descr":"Área verde","nombre":"Propiedad Municipal","tipologia":"BANCO DE SUELO","parroquia":"ALOAG","ambito":"Urbano","category":"banco-suelo","source":"GAD Mejía | banco de suelo municipal"},"geometry":{"type":"Point","coordinates":[-78.583858,-0.464931]}},{"type":"Feature","properties":{"cod_catast":"1703530106152001000","area_terre":"2440.9561","area_contr":"","descr":"Área verde","nombre":"Propiedad Municipal","tipologia":"BANCO DE SUELO","parroquia":"CUTUGLAHUA","ambito":"Urbano","category":"banco-suelo","source":"GAD Mejía | banco de suelo municipal"},"geometry":{"type":"Point","coordinates":[-78.567416,-0.363426]}},{"type":"Feature","properties":{"cod_catast":"1703510103017049000","area_terre":"266.6435","area_contr":"","descr":"Área verde","nombre":"Propiedad Municipal","tipologia":"BANCO DE SUELO","parroquia":"ALOAG","ambito":"Urbano","category":"banco-suelo","source":"GAD Mejía | banco de suelo municipal"},"geometry":{"type":"Point","coordinates":[-78.588925,-0.470672]}},{"type":"Feature","properties":{"cod_catast":"1703510103029063000","area_terre":"6314.1768","area_contr":"","descr":"Área verde","nombre":"Propiedad Municipal","tipologia":"BANCO DE SUELO","parroquia":"ALOAG","ambito":"Urbano","category":"banco-suelo","source":"GAD Mejía | banco de suelo municipal"},"geometry":{"type":"Point","coordinates":[-78.580879,-0.476361]}},{"type":"Feature","properties":{"cod_catast":"1703530102024022000","area_terre":"3835.3921","area_contr":"","descr":"Área verde","nombre":"Propiedad Municipal","tipologia":"BANCO DE SUELO","parroquia":"CUTUGLAHUA","ambito":"Urbano","category":"banco-suelo","source":"GAD Mejía | banco de suelo municipal"},"geometry":{"type":"Point","coordinates":[-78.54863,-0.375341]}},{"type":"Feature","properties":{"cod_catast":"1703550104001016000","area_terre":"904.7300","area_contr":"251.4705","descr":"Área verde","nombre":"Propiedad Municipal","tipologia":"BANCO DE SUELO","parroquia":"MANUEL CORNEJO ASTORGA","ambito":"Urbano","category":"banco-suelo","source":"GAD Mejía | banco de suelo municipal"},"geometry":{"type":"Point","coordinates":[-78.801701,-0.413813]}},{"type":"Feature","properties":{"cod_catast":"1703550104001021000","area_terre":"2186.4000","area_contr":"","descr":"Área verde","nombre":"Propiedad Municipal","tipologia":"BANCO DE SUELO","parroquia":"MANUEL CORNEJO ASTORGA","ambito":"Urbano","category":"banco-suelo","source":"GAD Mejía | banco de suelo municipal"},"geometry":{"type":"Point","coordinates":[-78.801337,-0.414782]}},{"type":"Feature","properties":{"cod_catast":"1703550104001032000","area_terre":"3787.8759","area_contr":"748.9553","descr":"Área verde","nombre":"Propiedad Municipal","tipologia":"BANCO DE SUELO","parroquia":"MANUEL CORNEJO ASTORGA","ambito":"Urbano","category":"banco-suelo","source":"GAD Mejía | banco de suelo municipal"},"geometry":{"type":"Point","coordinates":[-78.800135,-0.41579]}},{"type":"Feature","properties":{"cod_catast":"1703560102027010000","area_terre":"829.5914","area_contr":"","descr":"Área verde","nombre":"Propiedad Municipal","tipologia":"BANCO DE SUELO","parroquia":"TAMBILLO","ambito":"Urbano","category":"banco-suelo","source":"GAD Mejía | banco de suelo municipal"},"geometry":{"type":"Point","coordinates":[-78.541359,-0.405362]}},{"type":"Feature","properties":{"cod_catast":"","area_terre":"","area_contr":"","descr":"Área verde","nombre":"Propiedad Municipal","tipologia":"BANCO DE SUELO","parroquia":"UYUMBICHO","ambito":"","category":"banco-suelo","source":"GAD Mejía | banco de suelo municipal"},"geometry":{"type":"Point","coordinates":[-78.54326,-0.401481]}},{"type":"Feature","properties":{"cod_catast":"","area_terre":"","area_contr":"","descr":"Área verde","nombre":"Propiedad Municipal","tipologia":"BANCO DE SUELO","parroquia":"TAMBILLO","ambito":"","category":"banco-suelo","source":"GAD Mejía | banco de suelo municipal"},"geometry":{"type":"Point","coordinates":[-78.546122,-0.401584]}},{"type":"Feature","properties":{"cod_catast":"1703560102028006000","area_terre":"1294.6300","area_contr":"","descr":"Área verde","nombre":"Propiedad Municipal","tipologia":"BANCO DE SUELO","parroquia":"TAMBILLO","ambito":"Urbano","category":"banco-suelo","source":"GAD Mejía | banco de suelo municipal"},"geometry":{"type":"Point","coordinates":[-78.540864,-0.405526]}},{"type":"Feature","properties":{"cod_catast":"","area_terre":"","area_contr":"","descr":"Área verde","nombre":"Propiedad Municipal","tipologia":"BANCO DE SUELO","parroquia":"TAMBILLO","ambito":"","category":"banco-suelo","source":"GAD Mejía | banco de suelo municipal"},"geometry":{"type":"Point","coordinates":[-78.540337,-0.405676]}},{"type":"Feature","properties":{"cod_catast":"1703570101035001000","area_terre":"513.1200","area_contr":"","descr":"Área verde","nombre":"Propiedad Municipal","tipologia":"BANCO DE SUELO","parroquia":"UYUMBICHO","ambito":"Urbano","category":"banco-suelo","source":"GAD Mejía | banco de suelo municipal"},"geometry":{"type":"Point","coordinates":[-78.517894,-0.382689]}},{"type":"Feature","properties":{"cod_catast":"1703530103083001000","area_terre":"1502.5344","area_contr":"56.7591","descr":"Área verde","nombre":"Propiedad Municipal","tipologia":"BANCO DE SUELO","parroquia":"CUTUGLAHUA","ambito":"Urbano","category":"banco-suelo","source":"GAD Mejía | banco de suelo municipal"},"geometry":{"type":"Point","coordinates":[-78.552135,-0.378198]}},{"type":"Feature","properties":{"cod_catast":"1703550104001034000","area_terre":"1055.1600","area_contr":"","descr":"Área verde","nombre":"Propiedad Municipal","tipologia":"BANCO DE SUELO","parroquia":"MANUEL CORNEJO ASTORGA","ambito":"Urbano","category":"banco-suelo","source":"GAD Mejía | banco de suelo municipal"},"geometry":{"type":"Point","coordinates":[-78.799369,-0.416929]}},{"type":"Feature","properties":{"cod_catast":"1703510104007012000","area_terre":"633.8600","area_contr":"","descr":"Área verde","nombre":"Propiedad Municipal","tipologia":"BANCO DE SUELO","parroquia":"ALOAG","ambito":"Urbano","category":"banco-suelo","source":"GAD Mejía | banco de suelo municipal"},"geometry":{"type":"Point","coordinates":[-78.588125,-0.474158]}},{"type":"Feature","properties":{"cod_catast":"1703520102005031000","area_terre":"1300.0000","area_contr":"","descr":"Área verde","nombre":"Propiedad Municipal","tipologia":"BANCO DE SUELO","parroquia":"ALOASÍ","ambito":"Urbano","category":"banco-suelo","source":"GAD Mejía | banco de suelo municipal"},"geometry":{"type":"Point","coordinates":[-78.575102,-0.50811]}},{"type":"Feature","properties":{"cod_catast":"1703530105057013000","area_terre":"1295.9777","area_contr":"","descr":"Área verde","nombre":"Propiedad Municipal","tipologia":"BANCO DE SUELO","parroquia":"CUTUGLAHUA","ambito":"Urbano","category":"banco-suelo","source":"GAD Mejía | banco de suelo municipal"},"geometry":{"type":"Point","coordinates":[-78.55792,-0.37913]}},{"type":"Feature","properties":{"cod_catast":"1703550102003025000","area_terre":"1549.4300","area_contr":"","descr":"Área verde","nombre":"Propiedad Municipal","tipologia":"BANCO DE SUELO","parroquia":"MANUEL CORNEJO ASTORGA","ambito":"Urbano","category":"banco-suelo","source":"GAD Mejía | banco de suelo municipal"},"geometry":{"type":"Point","coordinates":[-78.795242,-0.417399]}},{"type":"Feature","properties":{"cod_catast":"1703510104007013000","area_terre":"1668.9000","area_contr":"","descr":"Área verde","nombre":"Propiedad Municipal","tipologia":"BANCO DE SUELO","parroquia":"ALOAG","ambito":"Urbano","category":"banco-suelo","source":"GAD Mejía | banco de suelo municipal"},"geometry":{"type":"Point","coordinates":[-78.588385,-0.474128]}},{"type":"Feature","properties":{"cod_catast":"1703520101011030000","area_terre":"729.3900","area_contr":"","descr":"Área verde","nombre":"Propiedad Municipal","tipologia":"BANCO DE SUELO","parroquia":"ALOASÍ","ambito":"Urbano","category":"banco-suelo","source":"GAD Mejía | banco de suelo municipal"},"geometry":{"type":"Point","coordinates":[-78.581083,-0.527499]}},{"type":"Feature","properties":{"cod_catast":"1703530105104001000","area_terre":"328.1200","area_contr":"","descr":"Área verde","nombre":"Propiedad Municipal","tipologia":"BANCO DE SUELO","parroquia":"CUTUGLAHUA","ambito":"Urbano","category":"banco-suelo","source":"GAD Mejía | banco de suelo municipal"},"geometry":{"type":"Point","coordinates":[-78.567825,-0.373315]}},{"type":"Feature","properties":{"cod_catast":"1703560101041001000","area_terre":"350.4713","area_contr":"","descr":"Área verde","nombre":"Propiedad Municipal","tipologia":"BANCO DE SUELO","parroquia":"TAMBILLO","ambito":"Urbano","category":"banco-suelo","source":"GAD Mejía | banco de suelo municipal"},"geometry":{"type":"Point","coordinates":[-78.551335,-0.410098]}},{"type":"Feature","properties":{"cod_catast":"1703500106006001000","area_terre":"3599.1000","area_contr":"","descr":"Área verde","nombre":"Propiedad Municipal","tipologia":"BANCO DE SUELO","parroquia":"MACHACHI","ambito":"Urbano","category":"banco-suelo","source":"GAD Mejía | banco de suelo municipal"},"geometry":{"type":"Point","coordinates":[-78.556492,-0.503022]}},{"type":"Feature","properties":{"cod_catast":"1703500102043007000","area_terre":"1920.0000","area_contr":"","descr":"Área verde","nombre":"Propiedad Municipal","tipologia":"BANCO DE SUELO","parroquia":"MACHACHI","ambito":"Urbano","category":"banco-suelo","source":"GAD Mejía | banco de suelo municipal"},"geometry":{"type":"Point","coordinates":[-78.567975,-0.519979]}},{"type":"Feature","properties":{"cod_catast":"1703500104049014000","area_terre":"980.3499","area_contr":"","descr":"Área verde","nombre":"Propiedad Municipal","tipologia":"BANCO DE SUELO","parroquia":"MACHACHI","ambito":"Urbano","category":"banco-suelo","source":"GAD Mejía | banco de suelo municipal"},"geometry":{"type":"Point","coordinates":[-78.57314,-0.514387]}},{"type":"Feature","properties":{"cod_catast":"1703530103071001000","area_terre":"1199.5092","area_contr":"","descr":"Área verde","nombre":"Propiedad Municipal","tipologia":"BANCO DE SUELO","parroquia":"CUTUGLAHUA","ambito":"Urbano","category":"banco-suelo","source":"GAD Mejía | banco de suelo municipal"},"geometry":{"type":"Point","coordinates":[-78.540835,-0.385821]}},{"type":"Feature","properties":{"cod_catast":"1703570103008022000","area_terre":"3868.5114","area_contr":"","descr":"Área verde","nombre":"Propiedad Municipal","tipologia":"BANCO DE SUELO","parroquia":"UYUMBICHO","ambito":"Urbano","category":"banco-suelo","source":"GAD Mejía | banco de suelo municipal"},"geometry":{"type":"Point","coordinates":[-78.533261,-0.398872]}},{"type":"Feature","properties":{"cod_catast":"1703570103022044000","area_terre":"578.4900","area_contr":"","descr":"Área verde","nombre":"Propiedad Municipal","tipologia":"BANCO DE SUELO","parroquia":"UYUMBICHO","ambito":"Urbano","category":"banco-suelo","source":"GAD Mejía | banco de suelo municipal"},"geometry":{"type":"Point","coordinates":[-78.52601,-0.386765]}},{"type":"Feature","properties":{"cod_catast":"1703530104044019000","area_terre":"15614.6274","area_contr":"","descr":"Área verde","nombre":"Propiedad Municipal","tipologia":"BANCO DE SUELO","parroquia":"CUTUGLAHUA","ambito":"Urbano","category":"banco-suelo","source":"GAD Mejía | banco de suelo municipal"},"geometry":{"type":"Point","coordinates":[-78.553935,-0.387356]}},{"type":"Feature","properties":{"cod_catast":"1703570104012050000","area_terre":"293.9700","area_contr":"","descr":"Área verde","nombre":"Propiedad Municipal","tipologia":"BANCO DE SUELO","parroquia":"UYUMBICHO","ambito":"Urbano","category":"banco-suelo","source":"GAD Mejía | banco de suelo municipal"},"geometry":{"type":"Point","coordinates":[-78.525527,-0.385067]}},{"type":"Feature","properties":{"cod_catast":"1703530101051001000","area_terre":"6771.0223","area_contr":"332.4802","descr":"Área verde","nombre":"Propiedad Municipal","tipologia":"BANCO DE SUELO","parroquia":"CUTUGLAHUA","ambito":"Urbano","category":"banco-suelo","source":"GAD Mejía | banco de suelo municipal"},"geometry":{"type":"Point","coordinates":[-78.545837,-0.365926]}},{"type":"Feature","properties":{"cod_catast":"1703530106175001000","area_terre":"655.1842","area_contr":"","descr":"Área verde","nombre":"Propiedad Municipal","tipologia":"BANCO DE SUELO","parroquia":"CUTUGLAHUA","ambito":"Urbano","category":"banco-suelo","source":"GAD Mejía | banco de suelo municipal"},"geometry":{"type":"Point","coordinates":[-78.566752,-0.361797]}},{"type":"Feature","properties":{"cod_catast":"1703530106174001000","area_terre":"655.2000","area_contr":"","descr":"Área verde","nombre":"Propiedad Municipal","tipologia":"BANCO DE SUELO","parroquia":"CUTUGLAHUA","ambito":"Urbano","category":"banco-suelo","source":"GAD Mejía | banco de suelo municipal"},"geometry":{"type":"Point","coordinates":[-78.567396,-0.361435]}},{"type":"Feature","properties":{"cod_catast":"1703530106173001000","area_terre":"655.2035","area_contr":"","descr":"Área verde","nombre":"Propiedad Municipal","tipologia":"BANCO DE SUELO","parroquia":"CUTUGLAHUA","ambito":"Urbano","category":"banco-suelo","source":"GAD Mejía | banco de suelo municipal"},"geometry":{"type":"Point","coordinates":[-78.568041,-0.361073]}},{"type":"Feature","properties":{"cod_catast":"1703530106115001000","area_terre":"532.0005","area_contr":"","descr":"Área verde","nombre":"Propiedad Municipal","tipologia":"BANCO DE SUELO","parroquia":"CUTUGLAHUA","ambito":"Urbano","category":"banco-suelo","source":"GAD Mejía | banco de suelo municipal"},"geometry":{"type":"Point","coordinates":[-78.566771,-0.362992]}},{"type":"Feature","properties":{"cod_catast":"","area_terre":"","area_contr":"","descr":"Área verde","nombre":"Propiedad Municipal","tipologia":"BANCO DE SUELO","parroquia":"UYUMBICHO","ambito":"","category":"banco-suelo","source":"GAD Mejía | banco de suelo municipal"},"geometry":{"type":"Point","coordinates":[-78.53934,-0.397224]}},{"type":"Feature","properties":{"cod_catast":"1703530105070074000","area_terre":"36338.9715","area_contr":"","descr":"Área verde","nombre":"Propiedad Municipal","tipologia":"BANCO DE SUELO","parroquia":"CUTUGLAHUA","ambito":"Urbano","category":"banco-suelo","source":"GAD Mejía | banco de suelo municipal"},"geometry":{"type":"Point","coordinates":[-78.565956,-0.375968]}},{"type":"Feature","properties":{"cod_catast":"","area_terre":"","area_contr":"","descr":"Área verde","nombre":"Propiedad Municipal","tipologia":"BANCO DE SUELO","parroquia":"CUTUGLAHUA","ambito":"","category":"banco-suelo","source":"GAD Mejía | banco de suelo municipal"},"geometry":{"type":"Point","coordinates":[-78.566998,-0.376805]}},{"type":"Feature","properties":{"cod_catast":"1703530105041001000","area_terre":"14850.8646","area_contr":"","descr":"Área verde","nombre":"Propiedad Municipal","tipologia":"BANCO DE SUELO","parroquia":"CUTUGLAHUA","ambito":"Urbano","category":"banco-suelo","source":"GAD Mejía | banco de suelo municipal"},"geometry":{"type":"Point","coordinates":[-78.557871,-0.375549]}},{"type":"Feature","properties":{"cod_catast":"1703530103046002000","area_terre":"2149.2500","area_contr":"48.6900","descr":"Área verde","nombre":"Propiedad Municipal","tipologia":"BANCO DE SUELO","parroquia":"CUTUGLAHUA","ambito":"Urbano","category":"banco-suelo","source":"GAD Mejía | banco de suelo municipal"},"geometry":{"type":"Point","coordinates":[-78.535679,-0.387308]}},{"type":"Feature","properties":{"cod_catast":"1703530106178001000","area_terre":"814.8100","area_contr":"","descr":"Área verde","nombre":"Propiedad Municipal","tipologia":"BANCO DE SUELO","parroquia":"CUTUGLAHUA","ambito":"Urbano","category":"banco-suelo","source":"GAD Mejía | banco de suelo municipal"},"geometry":{"type":"Point","coordinates":[-78.569298,-0.357036]}},{"type":"Feature","properties":{"cod_catast":"1703530105078049000","area_terre":"1070.2485","area_contr":"","descr":"Área verde","nombre":"Propiedad Municipal","tipologia":"BANCO DE SUELO","parroquia":"CUTUGLAHUA","ambito":"Urbano","category":"banco-suelo","source":"GAD Mejía | banco de suelo municipal"},"geometry":{"type":"Point","coordinates":[-78.566745,-0.372979]}},{"type":"Feature","properties":{"cod_catast":"1703530103075058000","area_terre":"3902.4900","area_contr":"","descr":"Área verde","nombre":"Propiedad Municipal","tipologia":"BANCO DE SUELO","parroquia":"CUTUGLAHUA","ambito":"Urbano","category":"banco-suelo","source":"GAD Mejía | banco de suelo municipal"},"geometry":{"type":"Point","coordinates":[-78.547322,-0.387625]}},{"type":"Feature","properties":{"cod_catast":"1703510105009009000","area_terre":"627.0063","area_contr":"","descr":"Área verde","nombre":"Propiedad Municipal","tipologia":"BANCO DE SUELO","parroquia":"ALOAG","ambito":"Urbano","category":"banco-suelo","source":"GAD Mejía | banco de suelo municipal"},"geometry":{"type":"Point","coordinates":[-78.584502,-0.465199]}},{"type":"Feature","properties":{"cod_catast":"1703520101039038000","area_terre":"1198.7719","area_contr":"","descr":"Área verde","nombre":"Propiedad Municipal","tipologia":"BANCO DE SUELO","parroquia":"ALOASÍ","ambito":"Urbano","category":"banco-suelo","source":"GAD Mejía | banco de suelo municipal"},"geometry":{"type":"Point","coordinates":[-78.578297,-0.517641]}},{"type":"Feature","properties":{"cod_catast":"1703500104029018000","area_terre":"946.2700","area_contr":"","descr":"Área verde","nombre":"Propiedad Municipal","tipologia":"BANCO DE SUELO","parroquia":"MACHACHI","ambito":"Urbano","category":"banco-suelo","source":"GAD Mejía | banco de suelo municipal"},"geometry":{"type":"Point","coordinates":[-78.570492,-0.509652]}},{"type":"Feature","properties":{"cod_catast":"1703530103077007000","area_terre":"2061.9254","area_contr":"","descr":"Área verde","nombre":"Propiedad Municipal","tipologia":"BANCO DE SUELO","parroquia":"CUTUGLAHUA","ambito":"Urbano","category":"banco-suelo","source":"GAD Mejía | banco de suelo municipal"},"geometry":{"type":"Point","coordinates":[-78.547604,-0.384761]}},{"type":"Feature","properties":{"cod_catast":"1703530105052009000","area_terre":"22457.6415","area_contr":"","descr":"Área verde","nombre":"Propiedad Municipal","tipologia":"BANCO DE SUELO","parroquia":"CUTUGLAHUA","ambito":"Urbano","category":"banco-suelo","source":"GAD Mejía | banco de suelo municipal"},"geometry":{"type":"Point","coordinates":[-78.560479,-0.378053]}},{"type":"Feature","properties":{"cod_catast":"1703500104036004000","area_terre":"800.1600","area_contr":"","descr":"Área verde","nombre":"Propiedad Municipal","tipologia":"BANCO DE SUELO","parroquia":"MACHACHI","ambito":"Urbano","category":"banco-suelo","source":"GAD Mejía | banco de suelo municipal"},"geometry":{"type":"Point","coordinates":[-78.571367,-0.510591]}},{"type":"Feature","properties":{"cod_catast":"1703530105053042000","area_terre":"1261.6774","area_contr":"","descr":"Área verde","nombre":"Propiedad Municipal","tipologia":"BANCO DE SUELO","parroquia":"CUTUGLAHUA","ambito":"Urbano","category":"banco-suelo","source":"GAD Mejía | banco de suelo municipal"},"geometry":{"type":"Point","coordinates":[-78.559278,-0.377354]}},{"type":"Feature","properties":{"cod_catast":"1703530102051001000","area_terre":"10069.9100","area_contr":"","descr":"Área verde","nombre":"Propiedad Municipal","tipologia":"BANCO DE SUELO","parroquia":"CUTUGLAHUA","ambito":"Urbano","category":"banco-suelo","source":"GAD Mejía | banco de suelo municipal"},"geometry":{"type":"Point","coordinates":[-78.534229,-0.374509]}},{"type":"Feature","properties":{"cod_catast":"1703530105116002000","area_terre":"4255.0783","area_contr":"314.4383","descr":"Área verde","nombre":"Propiedad Municipal","tipologia":"BANCO DE SUELO","parroquia":"CUTUGLAHUA","ambito":"Urbano","category":"banco-suelo","source":"GAD Mejía | banco de suelo municipal"},"geometry":{"type":"Point","coordinates":[-78.56985,-0.374641]}},{"type":"Feature","properties":{"cod_catast":"1703530103027001000","area_terre":"3550.0000","area_contr":"","descr":"Área verde","nombre":"Propiedad Municipal","tipologia":"BANCO DE SUELO","parroquia":"CUTUGLAHUA","ambito":"Urbano","category":"banco-suelo","source":"GAD Mejía | banco de suelo municipal"},"geometry":{"type":"Point","coordinates":[-78.541137,-0.380205]}},{"type":"Feature","properties":{"cod_catast":"1703530105021049000","area_terre":"1109.7997","area_contr":"","descr":"Área verde","nombre":"Propiedad Municipal","tipologia":"BANCO DE SUELO","parroquia":"CUTUGLAHUA","ambito":"Urbano","category":"banco-suelo","source":"GAD Mejía | banco de suelo municipal"},"geometry":{"type":"Point","coordinates":[-78.564374,-0.371581]}},{"type":"Feature","properties":{"cod_catast":"1703540101008002000","area_terre":"330.7500","area_contr":"","descr":"Área verde","nombre":"Propiedad Municipal","tipologia":"BANCO DE SUELO","parroquia":"EL CHAUPI","ambito":"Urbano","category":"banco-suelo","source":"GAD Mejía | banco de suelo municipal"},"geometry":{"type":"Point","coordinates":[-78.644724,-0.603539]}},{"type":"Feature","properties":{"cod_catast":"1703500103016029000","area_terre":"693.7900","area_contr":"","descr":"Área verde","nombre":"Propiedad Municipal","tipologia":"BANCO DE SUELO","parroquia":"MACHACHI","ambito":"Urbano","category":"banco-suelo","source":"GAD Mejía | banco de suelo municipal"},"geometry":{"type":"Point","coordinates":[-78.575237,-0.518837]}},{"type":"Feature","properties":{"cod_catast":"1703500105026002000","area_terre":"2000.1400","area_contr":"","descr":"Área verde","nombre":"Propiedad Municipal","tipologia":"BANCO DE SUELO","parroquia":"MACHACHI","ambito":"Urbano","category":"banco-suelo","source":"GAD Mejía | banco de suelo municipal"},"geometry":{"type":"Point","coordinates":[-78.56738,-0.50174]}},{"type":"Feature","properties":{"cod_catast":"1703530103059017000","area_terre":"1860.6300","area_contr":"","descr":"Área verde","nombre":"Propiedad Municipal","tipologia":"BANCO DE SUELO","parroquia":"CUTUGLAHUA","ambito":"Urbano","category":"banco-suelo","source":"GAD Mejía | banco de suelo municipal"},"geometry":{"type":"Point","coordinates":[-78.550005,-0.384047]}},{"type":"Feature","properties":{"cod_catast":"1703530103075103000","area_terre":"2086.8000","area_contr":"","descr":"Área verde","nombre":"Propiedad Municipal","tipologia":"BANCO DE SUELO","parroquia":"CUTUGLAHUA","ambito":"Urbano","category":"banco-suelo","source":"GAD Mejía | banco de suelo municipal"},"geometry":{"type":"Point","coordinates":[-78.545224,-0.384191]}},{"type":"Feature","properties":{"cod_catast":"1703570104040001000","area_terre":"905.3500","area_contr":"","descr":"Área verde","nombre":"Propiedad Municipal","tipologia":"BANCO DE SUELO","parroquia":"UYUMBICHO","ambito":"Urbano","category":"banco-suelo","source":"GAD Mejía | banco de suelo municipal"},"geometry":{"type":"Point","coordinates":[-78.5244,-0.386458]}},{"type":"Feature","properties":{"cod_catast":"1703560101059052000","area_terre":"2414.0000","area_contr":"","descr":"Área verde","nombre":"Propiedad Municipal","tipologia":"BANCO DE SUELO","parroquia":"TAMBILLO","ambito":"Urbano","category":"banco-suelo","source":"GAD Mejía | banco de suelo municipal"},"geometry":{"type":"Point","coordinates":[-78.54959,-0.404199]}},{"type":"Feature","properties":{"cod_catast":"1703560101059005000","area_terre":"1225.5600","area_contr":"","descr":"Área verde","nombre":"Propiedad Municipal","tipologia":"BANCO DE SUELO","parroquia":"TAMBILLO","ambito":"Urbano","category":"banco-suelo","source":"GAD Mejía | banco de suelo municipal"},"geometry":{"type":"Point","coordinates":[-78.548112,-0.403897]}},{"type":"Feature","properties":{"cod_catast":"1703530103017002000","area_terre":"1015.2600","area_contr":"","descr":"Área verde","nombre":"Propiedad Municipal","tipologia":"BANCO DE SUELO","parroquia":"CUTUGLAHUA","ambito":"Urbano","category":"banco-suelo","source":"GAD Mejía | banco de suelo municipal"},"geometry":{"type":"Point","coordinates":[-78.535169,-0.386836]}},{"type":"Feature","properties":{"cod_catast":"1703530103049041000","area_terre":"579.7423","area_contr":"","descr":"Área verde","nombre":"Propiedad Municipal","tipologia":"BANCO DE SUELO","parroquia":"CUTUGLAHUA","ambito":"Urbano","category":"banco-suelo","source":"GAD Mejía | banco de suelo municipal"},"geometry":{"type":"Point","coordinates":[-78.539774,-0.389616]}},{"type":"Feature","properties":{"cod_catast":"1703500111001042000","area_terre":"653.3900","area_contr":"54.0000","descr":"Área verde","nombre":"Propiedad Municipal","tipologia":"BANCO DE SUELO","parroquia":"MACHACHI","ambito":"Urbano","category":"banco-suelo","source":"GAD Mejía | banco de suelo municipal"},"geometry":{"type":"Point","coordinates":[-78.562321,-0.459713]}},{"type":"Feature","properties":{"cod_catast":"1703530103047054000","area_terre":"146.9800","area_contr":"","descr":"Área verde","nombre":"Propiedad Municipal","tipologia":"BANCO DE SUELO","parroquia":"CUTUGLAHUA","ambito":"Urbano","category":"banco-suelo","source":"GAD Mejía | banco de suelo municipal"},"geometry":{"type":"Point","coordinates":[-78.538428,-0.390151]}},{"type":"Feature","properties":{"cod_catast":"1703530106070071000","area_terre":"8917.4900","area_contr":"","descr":"Área verde","nombre":"Propiedad Municipal","tipologia":"BANCO DE SUELO","parroquia":"CUTUGLAHUA","ambito":"Urbano","category":"banco-suelo","source":"GAD Mejía | banco de suelo municipal"},"geometry":{"type":"Point","coordinates":[-78.556485,-0.361373]}},{"type":"Feature","properties":{"cod_catast":"1703550101003001000","area_terre":"4300.0000","area_contr":"","descr":"Área verde","nombre":"Propiedad Municipal","tipologia":"BANCO DE SUELO","parroquia":"MANUEL CORNEJO ASTORGA","ambito":"Urbano","category":"banco-suelo","source":"GAD Mejía | banco de suelo municipal"},"geometry":{"type":"Point","coordinates":[-78.799528,-0.414197]}},{"type":"Feature","properties":{"cod_catast":"1703530103039021000","area_terre":"12087.0600","area_contr":"","descr":"Área verde","nombre":"Propiedad Municipal","tipologia":"BANCO DE SUELO","parroquia":"CUTUGLAHUA","ambito":"Urbano","category":"banco-suelo","source":"GAD Mejía | banco de suelo municipal"},"geometry":{"type":"Point","coordinates":[-78.546472,-0.38073]}},{"type":"Feature","properties":{"cod_catast":"1703550101001006000","area_terre":"1051.7200","area_contr":"","descr":"Área verde","nombre":"Propiedad Municipal","tipologia":"BANCO DE SUELO","parroquia":"MANUEL CORNEJO ASTORGA","ambito":"Urbano","category":"banco-suelo","source":"GAD Mejía | banco de suelo municipal"},"geometry":{"type":"Point","coordinates":[-78.801535,-0.410847]}},{"type":"Feature","properties":{"cod_catast":"1703550102001022000","area_terre":"660.2200","area_contr":"98.6100","descr":"Área verde","nombre":"Propiedad Municipal","tipologia":"BANCO DE SUELO","parroquia":"MANUEL CORNEJO ASTORGA","ambito":"Urbano","category":"banco-suelo","source":"GAD Mejía | banco de suelo municipal"},"geometry":{"type":"Point","coordinates":[-78.796854,-0.416349]}},{"type":"Feature","properties":{"cod_catast":"1703560102011001000","area_terre":"2934.5400","area_contr":"110.8300","descr":"Área verde","nombre":"Propiedad Municipal","tipologia":"BANCO DE SUELO","parroquia":"TAMBILLO","ambito":"Urbano","category":"banco-suelo","source":"GAD Mejía | banco de suelo municipal"},"geometry":{"type":"Point","coordinates":[-78.541075,-0.404374]}},{"type":"Feature","properties":{"cod_catast":"1703530105011037000","area_terre":"1088.9797","area_contr":"","descr":"Área verde","nombre":"Propiedad Municipal","tipologia":"BANCO DE SUELO","parroquia":"CUTUGLAHUA","ambito":"Urbano","category":"banco-suelo","source":"GAD Mejía | banco de suelo municipal"},"geometry":{"type":"Point","coordinates":[-78.568403,-0.369944]}},{"type":"Feature","properties":{"cod_catast":"","area_terre":"","area_contr":"","descr":"Área verde","nombre":"Propiedad Municipal","tipologia":"BANCO DE SUELO","parroquia":"CUTUGLAHUA","ambito":"","category":"banco-suelo","source":"GAD Mejía | banco de suelo municipal"},"geometry":{"type":"Point","coordinates":[-78.556945,-0.363649]}},{"type":"Feature","properties":{"cod_catast":"1703560102007010000","area_terre":"472.3100","area_contr":"","descr":"Área verde","nombre":"Propiedad Municipal","tipologia":"BANCO DE SUELO","parroquia":"TAMBILLO","ambito":"Urbano","category":"banco-suelo","source":"GAD Mejía | banco de suelo municipal"},"geometry":{"type":"Point","coordinates":[-78.537584,-0.403781]}},{"type":"Feature","properties":{"cod_catast":"","area_terre":"","area_contr":"","descr":"Área verde","nombre":"Propiedad Municipal","tipologia":"BANCO DE SUELO","parroquia":"MACHACHI","ambito":"","category":"banco-suelo","source":"GAD Mejía | banco de suelo municipal"},"geometry":{"type":"Point","coordinates":[-78.561642,-0.499504]}},{"type":"Feature","properties":{"cod_catast":"1703560101040006000","area_terre":"818.6800","area_contr":"","descr":"Área verde","nombre":"Propiedad Municipal","tipologia":"BANCO DE SUELO","parroquia":"TAMBILLO","ambito":"Urbano","category":"banco-suelo","source":"GAD Mejía | banco de suelo municipal"},"geometry":{"type":"Point","coordinates":[-78.55269,-0.412415]}},{"type":"Feature","properties":{"cod_catast":"1703500108012032000","area_terre":"240.0000","area_contr":"","descr":"Área verde","nombre":"Propiedad Municipal","tipologia":"BANCO DE SUELO","parroquia":"MACHACHI","ambito":"Urbano","category":"banco-suelo","source":"GAD Mejía | banco de suelo municipal"},"geometry":{"type":"Point","coordinates":[-78.560925,-0.52848]}},{"type":"Feature","properties":{"cod_catast":"1703520104001022000","area_terre":"1569.7800","area_contr":"","descr":"Área verde","nombre":"Propiedad Municipal","tipologia":"BANCO DE SUELO","parroquia":"ALOASÍ","ambito":"Urbano","category":"banco-suelo","source":"GAD Mejía | banco de suelo municipal"},"geometry":{"type":"Point","coordinates":[-78.588466,-0.518384]}},{"type":"Feature","properties":{"cod_catast":"1703520101047134000","area_terre":"40.7000","area_contr":"","descr":"Área verde","nombre":"Propiedad Municipal","tipologia":"BANCO DE SUELO","parroquia":"ALOASÍ","ambito":"Urbano","category":"banco-suelo","source":"GAD Mejía | banco de suelo municipal"},"geometry":{"type":"Point","coordinates":[-78.580775,-0.525882]}},{"type":"Feature","properties":{"cod_catast":"1703520101047132000","area_terre":"579.9600","area_contr":"","descr":"Área verde","nombre":"Propiedad Municipal","tipologia":"BANCO DE SUELO","parroquia":"ALOASÍ","ambito":"Urbano","category":"banco-suelo","source":"GAD Mejía | banco de suelo municipal"},"geometry":{"type":"Point","coordinates":[-78.580933,-0.525661]}},{"type":"Feature","properties":{"cod_catast":"1703500108029020000","area_terre":"973.5800","area_contr":"","descr":"Área verde","nombre":"Propiedad Municipal","tipologia":"BANCO DE SUELO","parroquia":"MACHACHI","ambito":"Urbano","category":"banco-suelo","source":"GAD Mejía | banco de suelo municipal"},"geometry":{"type":"Point","coordinates":[-78.561245,-0.526102]}},{"type":"Feature","properties":{"cod_catast":"1703530103050022000","area_terre":"1837.2705","area_contr":"","descr":"Área verde","nombre":"Propiedad Municipal","tipologia":"BANCO DE SUELO","parroquia":"CUTUGLAHUA","ambito":"Urbano","category":"banco-suelo","source":"GAD Mejía | banco de suelo municipal"},"geometry":{"type":"Point","coordinates":[-78.541352,-0.388686]}},{"type":"Feature","properties":{"cod_catast":"","area_terre":"","area_contr":"","descr":"Área verde","nombre":"Propiedad Municipal","tipologia":"BANCO DE SUELO","parroquia":"TAMBILLO","ambito":"","category":"banco-suelo","source":"GAD Mejía | banco de suelo municipal"},"geometry":{"type":"Point","coordinates":[-78.534486,-0.404803]}},{"type":"Feature","properties":{"cod_catast":"1703560102045028000","area_terre":"1661.9400","area_contr":"","descr":"Área verde","nombre":"Propiedad Municipal","tipologia":"BANCO DE SUELO","parroquia":"TAMBILLO","ambito":"Urbano","category":"banco-suelo","source":"GAD Mejía | banco de suelo municipal"},"geometry":{"type":"Point","coordinates":[-78.53281,-0.4031]}},{"type":"Feature","properties":{"cod_catast":"1703500106068007000","area_terre":"666.1213","area_contr":"","descr":"Área verde","nombre":"Propiedad Municipal","tipologia":"BANCO DE SUELO","parroquia":"MACHACHI","ambito":"Urbano","category":"banco-suelo","source":"GAD Mejía | banco de suelo municipal"},"geometry":{"type":"Point","coordinates":[-78.565758,-0.507295]}},{"type":"Feature","properties":{"cod_catast":"1703520101010085000","area_terre":"1023.3200","area_contr":"","descr":"Área verde","nombre":"Propiedad Municipal","tipologia":"BANCO DE SUELO","parroquia":"ALOASÍ","ambito":"Urbano","category":"banco-suelo","source":"GAD Mejía | banco de suelo municipal"},"geometry":{"type":"Point","coordinates":[-78.578166,-0.522042]}},{"type":"Feature","properties":{"cod_catast":"1703530103090001000","area_terre":"1315.2791","area_contr":"","descr":"Área verde","nombre":"Propiedad Municipal","tipologia":"BANCO DE SUELO","parroquia":"CUTUGLAHUA","ambito":"Urbano","category":"banco-suelo","source":"GAD Mejía | banco de suelo municipal"},"geometry":{"type":"Point","coordinates":[-78.54878,-0.376269]}},{"type":"Feature","properties":{"cod_catast":"1703530103091001000","area_terre":"9594.9300","area_contr":"","descr":"Área verde","nombre":"Propiedad Municipal","tipologia":"BANCO DE SUELO","parroquia":"CUTUGLAHUA","ambito":"Urbano","category":"banco-suelo","source":"GAD Mejía | banco de suelo municipal"},"geometry":{"type":"Point","coordinates":[-78.549365,-0.376944]}},{"type":"Feature","properties":{"cod_catast":"1703530103092001000","area_terre":"2934.6049","area_contr":"","descr":"Área verde","nombre":"Propiedad Municipal","tipologia":"BANCO DE SUELO","parroquia":"CUTUGLAHUA","ambito":"Urbano","category":"banco-suelo","source":"GAD Mejía | banco de suelo municipal"},"geometry":{"type":"Point","coordinates":[-78.550012,-0.377746]}},{"type":"Feature","properties":{"cod_catast":"1703530105126003000","area_terre":"46.9873","area_contr":"","descr":"Área verde","nombre":"Propiedad Municipal","tipologia":"BANCO DE SUELO","parroquia":"CUTUGLAHUA","ambito":"Urbano","category":"banco-suelo","source":"GAD Mejía | banco de suelo municipal"},"geometry":{"type":"Point","coordinates":[-78.561392,-0.370263]}},{"type":"Feature","properties":{"cod_catast":"1703530105111015000","area_terre":"3618.7544","area_contr":"354.8500","descr":"Área verde","nombre":"Propiedad Municipal","tipologia":"BANCO DE SUELO","parroquia":"CUTUGLAHUA","ambito":"Urbano","category":"banco-suelo","source":"GAD Mejía | banco de suelo municipal"},"geometry":{"type":"Point","coordinates":[-78.562264,-0.373172]}},{"type":"Feature","properties":{"cod_catast":"1703530105124009000","area_terre":"7552.7200","area_contr":"","descr":"Área verde","nombre":"Propiedad Municipal","tipologia":"BANCO DE SUELO","parroquia":"CUTUGLAHUA","ambito":"Urbano","category":"banco-suelo","source":"GAD Mejía | banco de suelo municipal"},"geometry":{"type":"Point","coordinates":[-78.564108,-0.377569]}},{"type":"Feature","properties":{"cod_catast":"1703500106065018000","area_terre":"3340.9545","area_contr":"","descr":"Área verde","nombre":"Propiedad Municipal","tipologia":"BANCO DE SUELO","parroquia":"MACHACHI","ambito":"Urbano","category":"banco-suelo","source":"GAD Mejía | banco de suelo municipal"},"geometry":{"type":"Point","coordinates":[-78.565291,-0.505429]}},{"type":"Feature","properties":{"cod_catast":"1703500106067019000","area_terre":"3377.7813","area_contr":"","descr":"Área verde","nombre":"Propiedad Municipal","tipologia":"BANCO DE SUELO","parroquia":"MACHACHI","ambito":"Urbano","category":"banco-suelo","source":"GAD Mejía | banco de suelo municipal"},"geometry":{"type":"Point","coordinates":[-78.566115,-0.506385]}},{"type":"Feature","properties":{"cod_catast":"1703500106067020000","area_terre":"1377.4305","area_contr":"","descr":"Área verde","nombre":"Propiedad Municipal","tipologia":"BANCO DE SUELO","parroquia":"MACHACHI","ambito":"Urbano","category":"banco-suelo","source":"GAD Mejía | banco de suelo municipal"},"geometry":{"type":"Point","coordinates":[-78.56581,-0.506298]}},{"type":"Feature","properties":{"cod_catast":"1703510103017073000","area_terre":"135.9000","area_contr":"","descr":"Área verde","nombre":"Propiedad Municipal","tipologia":"BANCO DE SUELO","parroquia":"ALOAG","ambito":"Urbano","category":"banco-suelo","source":"GAD Mejía | banco de suelo municipal"},"geometry":{"type":"Point","coordinates":[-78.588745,-0.470656]}},{"type":"Feature","properties":{"cod_catast":"1703500104040064000","area_terre":"792.2777","area_contr":"","descr":"Área verde","nombre":"Propiedad Municipal","tipologia":"BANCO DE SUELO","parroquia":"MACHACHI","ambito":"Urbano","category":"banco-suelo","source":"GAD Mejía | banco de suelo municipal"},"geometry":{"type":"Point","coordinates":[-78.574684,-0.513571]}},{"type":"Feature","properties":{"cod_catast":"1703500104030005000","area_terre":"1769.4500","area_contr":"","descr":"Área verde","nombre":"Propiedad Municipal","tipologia":"BANCO DE SUELO","parroquia":"MACHACHI","ambito":"Urbano","category":"banco-suelo","source":"GAD Mejía | banco de suelo municipal"},"geometry":{"type":"Point","coordinates":[-78.571044,-0.509919]}},{"type":"Feature","properties":{"cod_catast":"1703500104036005000","area_terre":"1857.9800","area_contr":"","descr":"Área verde","nombre":"Propiedad Municipal","tipologia":"BANCO DE SUELO","parroquia":"MACHACHI","ambito":"Urbano","category":"banco-suelo","source":"GAD Mejía | banco de suelo municipal"},"geometry":{"type":"Point","coordinates":[-78.571517,-0.510395]}},{"type":"Feature","properties":{"cod_catast":"1703500105077006000","area_terre":"80.9500","area_contr":"","descr":"Área verde","nombre":"Propiedad Municipal","tipologia":"BANCO DE SUELO","parroquia":"MACHACHI","ambito":"Urbano","category":"banco-suelo","source":"GAD Mejía | banco de suelo municipal"},"geometry":{"type":"Point","coordinates":[-78.567556,-0.49814]}},{"type":"Feature","properties":{"cod_catast":"","area_terre":"","area_contr":"","descr":"Área verde","nombre":"Propiedad Municipal","tipologia":"BANCO DE SUELO","parroquia":"UYUMBICHO","ambito":"","category":"banco-suelo","source":"GAD Mejía | banco de suelo municipal"},"geometry":{"type":"Point","coordinates":[-78.534863,-0.387117]}},{"type":"Feature","properties":{"cod_catast":"","area_terre":"","area_contr":"","descr":"Área verde","nombre":"Propiedad Municipal","tipologia":"BANCO DE SUELO","parroquia":"ALOAG","ambito":"","category":"banco-suelo","source":"GAD Mejía | banco de suelo municipal"},"geometry":{"type":"Point","coordinates":[-78.571153,-0.488886]}},{"type":"Feature","properties":{"cod_catast":"","area_terre":"","area_contr":"","descr":"Área verde","nombre":"Propiedad Municipal","tipologia":"BANCO DE SUELO","parroquia":"TAMBILLO","ambito":"","category":"banco-suelo","source":"GAD Mejía | banco de suelo municipal"},"geometry":{"type":"Point","coordinates":[-78.561894,-0.387682]}},{"type":"Feature","properties":{"cod_catast":"","area_terre":"","area_contr":"","descr":"Área verde","nombre":"Propiedad Municipal","tipologia":"BANCO DE SUELO","parroquia":"TAMBILLO","ambito":"","category":"banco-suelo","source":"GAD Mejía | banco de suelo municipal"},"geometry":{"type":"Point","coordinates":[-78.562329,-0.388725]}},{"type":"Feature","properties":{"cod_catast":"","area_terre":"","area_contr":"","descr":"Área verde","nombre":"Propiedad Municipal","tipologia":"BANCO DE SUELO","parroquia":"TAMBILLO","ambito":"","category":"banco-suelo","source":"GAD Mejía | banco de suelo municipal"},"geometry":{"type":"Point","coordinates":[-78.562033,-0.386367]}},{"type":"Feature","properties":{"cod_catast":"","area_terre":"","area_contr":"","descr":"Área verde","nombre":"Propiedad Municipal","tipologia":"BANCO DE SUELO","parroquia":"TAMBILLO","ambito":"","category":"banco-suelo","source":"GAD Mejía | banco de suelo municipal"},"geometry":{"type":"Point","coordinates":[-78.563066,-0.390837]}},{"type":"Feature","properties":{"cod_catast":"","area_terre":"","area_contr":"","descr":"Área verde","nombre":"Propiedad Municipal","tipologia":"BANCO DE SUELO","parroquia":"TAMBILLO","ambito":"","category":"banco-suelo","source":"GAD Mejía | banco de suelo municipal"},"geometry":{"type":"Point","coordinates":[-78.564188,-0.390634]}},{"type":"Feature","properties":{"cod_catast":"","area_terre":"","area_contr":"","descr":"Área verde","nombre":"Propiedad Municipal","tipologia":"BANCO DE SUELO","parroquia":"TAMBILLO","ambito":"","category":"banco-suelo","source":"GAD Mejía | banco de suelo municipal"},"geometry":{"type":"Point","coordinates":[-78.564103,-0.389944]}},{"type":"Feature","properties":{"cod_catast":"1703570104031021000","area_terre":"1859.5000","area_contr":"","descr":"Área verde","nombre":"Propiedad Municipal","tipologia":"BANCO DE SUELO","parroquia":"UYUMBICHO","ambito":"Urbano","category":"banco-suelo","source":"GAD Mejía | banco de suelo municipal"},"geometry":{"type":"Point","coordinates":[-78.520306,-0.380232]}},{"type":"Feature","properties":{"cod_catast":"","area_terre":"","area_contr":"","descr":"Área verde","nombre":"Propiedad Municipal","tipologia":"BANCO DE SUELO","parroquia":"UYUMBICHO","ambito":"","category":"banco-suelo","source":"GAD Mejía | banco de suelo municipal"},"geometry":{"type":"Point","coordinates":[-78.529997,-0.399127]}},{"type":"Feature","properties":{"cod_catast":"1703570104031034000","area_terre":"1247.7500","area_contr":"","descr":"Área verde","nombre":"Propiedad Municipal","tipologia":"BANCO DE SUELO","parroquia":"UYUMBICHO","ambito":"Urbano","category":"banco-suelo","source":"GAD Mejía | banco de suelo municipal"},"geometry":{"type":"Point","coordinates":[-78.520724,-0.37962]}},{"type":"Feature","properties":{"cod_catast":"1703570101036001000","area_terre":"1282.4400","area_contr":"","descr":"Área verde","nombre":"Propiedad Municipal","tipologia":"BANCO DE SUELO","parroquia":"UYUMBICHO","ambito":"Urbano","category":"banco-suelo","source":"GAD Mejía | banco de suelo municipal"},"geometry":{"type":"Point","coordinates":[-78.51877,-0.381957]}},{"type":"Feature","properties":{"cod_catast":"1703530109003001000","area_terre":"27074.0366","area_contr":"","descr":"Área verde","nombre":"Propiedad Municipal","tipologia":"BANCO DE SUELO","parroquia":"CUTUGLAHUA","ambito":"Urbano","category":"banco-suelo","source":"GAD Mejía | banco de suelo municipal"},"geometry":{"type":"Point","coordinates":[-78.562899,-0.379105]}},{"type":"Feature","properties":{"cod_catast":"1703530110009008000","area_terre":"455.3200","area_contr":"0.0400","descr":"Área verde","nombre":"Propiedad Municipal","tipologia":"BANCO DE SUELO","parroquia":"CUTUGLAHUA","ambito":"Urbano","category":"banco-suelo","source":"GAD Mejía | banco de suelo municipal"},"geometry":{"type":"Point","coordinates":[-78.561256,-0.385447]}},{"type":"Feature","properties":{"cod_catast":"1703530106162002000","area_terre":"13410.8348","area_contr":"","descr":"Área verde","nombre":"Propiedad Municipal","tipologia":"BANCO DE SUELO","parroquia":"CUTUGLAHUA","ambito":"Urbano","category":"banco-suelo","source":"GAD Mejía | banco de suelo municipal"},"geometry":{"type":"Point","coordinates":[-78.559652,-0.358373]}},{"type":"Feature","properties":{"cod_catast":"1703530110002001000","area_terre":"13248.1000","area_contr":"","descr":"Área verde","nombre":"Propiedad Municipal","tipologia":"BANCO DE SUELO","parroquia":"CUTUGLAHUA","ambito":"Urbano","category":"banco-suelo","source":"GAD Mejía | banco de suelo municipal"},"geometry":{"type":"Point","coordinates":[-78.559909,-0.381505]}},{"type":"Feature","properties":{"cod_catast":"1703530110009031000","area_terre":"927.9000","area_contr":"","descr":"Área verde","nombre":"Propiedad Municipal","tipologia":"BANCO DE SUELO","parroquia":"CUTUGLAHUA","ambito":"Urbano","category":"banco-suelo","source":"GAD Mejía | banco de suelo municipal"},"geometry":{"type":"Point","coordinates":[-78.561485,-0.385971]}},{"type":"Feature","properties":{"cod_catast":"1703530109008008000","area_terre":"3389.2233","area_contr":"","descr":"Área verde","nombre":"Propiedad Municipal","tipologia":"BANCO DE SUELO","parroquia":"CUTUGLAHUA","ambito":"Urbano","category":"banco-suelo","source":"GAD Mejía | banco de suelo municipal"},"geometry":{"type":"Point","coordinates":[-78.567016,-0.37861]}},{"type":"Feature","properties":{"cod_catast":"1703530109022001000","area_terre":"2691.0494","area_contr":"","descr":"Área verde","nombre":"Propiedad Municipal","tipologia":"BANCO DE SUELO","parroquia":"CUTUGLAHUA","ambito":"Urbano","category":"banco-suelo","source":"GAD Mejía | banco de suelo municipal"},"geometry":{"type":"Point","coordinates":[-78.568615,-0.382013]}},{"type":"Feature","properties":{"cod_catast":"1703530109027029000","area_terre":"7791.8090","area_contr":"","descr":"Área verde","nombre":"Propiedad Municipal","tipologia":"BANCO DE SUELO","parroquia":"CUTUGLAHUA","ambito":"Urbano","category":"banco-suelo","source":"GAD Mejía | banco de suelo municipal"},"geometry":{"type":"Point","coordinates":[-78.566323,-0.383112]}},{"type":"Feature","properties":{"cod_catast":"1703530109018008000","area_terre":"1211.0515","area_contr":"12.2500","descr":"Área verde","nombre":"Propiedad Municipal","tipologia":"BANCO DE SUELO","parroquia":"CUTUGLAHUA","ambito":"Urbano","category":"banco-suelo","source":"GAD Mejía | banco de suelo municipal"},"geometry":{"type":"Point","coordinates":[-78.566535,-0.381137]}},{"type":"Feature","properties":{"cod_catast":"1703530109002009000","area_terre":"1811.9658","area_contr":"","descr":"Área verde","nombre":"Propiedad Municipal","tipologia":"BANCO DE SUELO","parroquia":"CUTUGLAHUA","ambito":"Urbano","category":"banco-suelo","source":"GAD Mejía | banco de suelo municipal"},"geometry":{"type":"Point","coordinates":[-78.567239,-0.377967]}},{"type":"Feature","properties":{"cod_catast":"","area_terre":"","area_contr":"","descr":"Área verde","nombre":"Propiedad Municipal","tipologia":"BANCO DE SUELO","parroquia":"CUTUGLAHUA","ambito":"","category":"banco-suelo","source":"GAD Mejía | banco de suelo municipal"},"geometry":{"type":"Point","coordinates":[-78.560318,-0.380503]}},{"type":"Feature","properties":{"cod_catast":"","area_terre":"","area_contr":"","descr":"Área verde","nombre":"Propiedad Municipal","tipologia":"BANCO DE SUELO","parroquia":"TAMBILLO","ambito":"","category":"banco-suelo","source":"GAD Mejía | banco de suelo municipal"},"geometry":{"type":"Point","coordinates":[-78.541295,-0.40643]}},{"type":"Feature","properties":{"cod_catast":"1703520101047002000","area_terre":"1568.0400","area_contr":"","descr":"Área verde","nombre":"Propiedad Municipal","tipologia":"BANCO DE SUELO","parroquia":"ALOASÍ","ambito":"Urbano","category":"banco-suelo","source":"GAD Mejía | banco de suelo municipal"},"geometry":{"type":"Point","coordinates":[-78.579843,-0.522476]}},{"type":"Feature","properties":{"cod_catast":"","area_terre":"","area_contr":"","descr":"Área verde","nombre":"Propiedad Municipal","tipologia":"BANCO DE SUELO","parroquia":"TAMBILLO","ambito":"","category":"banco-suelo","source":"GAD Mejía | banco de suelo municipal"},"geometry":{"type":"Point","coordinates":[-78.546846,-0.40004]}},{"type":"Feature","properties":{"cod_catast":"1703500107014007000","area_terre":"907.3200","area_contr":"","descr":"Área verde","nombre":"Propiedad Municipal","tipologia":"BANCO DE SUELO","parroquia":"MACHACHI","ambito":"Urbano","category":"banco-suelo","source":"GAD Mejía | banco de suelo municipal"},"geometry":{"type":"Point","coordinates":[-78.553892,-0.496047]}},{"type":"Feature","properties":{"cod_catast":"1703520101089032000","area_terre":"1999.0800","area_contr":"","descr":"Área verde","nombre":"Propiedad Municipal","tipologia":"BANCO DE SUELO","parroquia":"ALOASÍ","ambito":"Urbano","category":"banco-suelo","source":"GAD Mejía | banco de suelo municipal"},"geometry":{"type":"Point","coordinates":[-78.581329,-0.521302]}},{"type":"Feature","properties":{"cod_catast":"","area_terre":"","area_contr":"","descr":"Área verde","nombre":"Propiedad Municipal","tipologia":"BANCO DE SUELO","parroquia":"TAMBILLO","ambito":"","category":"banco-suelo","source":"GAD Mejía | banco de suelo municipal"},"geometry":{"type":"Point","coordinates":[-78.536093,-0.404663]}},{"type":"Feature","properties":{"cod_catast":"1703520104027012000","area_terre":"510.9800","area_contr":"","descr":"Área verde","nombre":"Propiedad Municipal","tipologia":"BANCO DE SUELO","parroquia":"ALOASÍ","ambito":"Urbano","category":"banco-suelo","source":"GAD Mejía | banco de suelo municipal"},"geometry":{"type":"Point","coordinates":[-78.586744,-0.519162]}},{"type":"Feature","properties":{"cod_catast":"1703500106056059000","area_terre":"10772.6600","area_contr":"","descr":"Área verde","nombre":"Propiedad Municipal","tipologia":"BANCO DE SUELO","parroquia":"MACHACHI","ambito":"Urbano","category":"banco-suelo","source":"GAD Mejía | banco de suelo municipal"},"geometry":{"type":"Point","coordinates":[-78.552831,-0.504549]}},{"type":"Feature","properties":{"cod_catast":"1703500102058102000","area_terre":"944.3300","area_contr":"","descr":"Área verde","nombre":"Propiedad Municipal","tipologia":"BANCO DE SUELO","parroquia":"MACHACHI","ambito":"Urbano","category":"banco-suelo","source":"GAD Mejía | banco de suelo municipal"},"geometry":{"type":"Point","coordinates":[-78.568951,-0.519578]}},{"type":"Feature","properties":{"cod_catast":"1703500102061018000","area_terre":"476.5300","area_contr":"","descr":"Área verde","nombre":"Propiedad Municipal","tipologia":"BANCO DE SUELO","parroquia":"MACHACHI","ambito":"Urbano","category":"banco-suelo","source":"GAD Mejía | banco de suelo municipal"},"geometry":{"type":"Point","coordinates":[-78.560985,-0.515573]}},{"type":"Feature","properties":{"cod_catast":"1703500105006007000","area_terre":"880.3200","area_contr":"","descr":"Área verde","nombre":"Propiedad Municipal","tipologia":"BANCO DE SUELO","parroquia":"MACHACHI","ambito":"Urbano","category":"banco-suelo","source":"GAD Mejía | banco de suelo municipal"},"geometry":{"type":"Point","coordinates":[-78.567901,-0.498368]}},{"type":"Feature","properties":{"cod_catast":"","area_terre":"","area_contr":"","descr":"Área verde","nombre":"Propiedad Municipal","tipologia":"BANCO DE SUELO","parroquia":"TAMBILLO","ambito":"","category":"banco-suelo","source":"GAD Mejía | banco de suelo municipal"},"geometry":{"type":"Point","coordinates":[-78.549027,-0.42313]}},{"type":"Feature","properties":{"cod_catast":"","area_terre":"","area_contr":"","descr":"Área verde","nombre":"Propiedad Municipal","tipologia":"BANCO DE SUELO","parroquia":"TAMBILLO","ambito":"","category":"banco-suelo","source":"GAD Mejía | banco de suelo municipal"},"geometry":{"type":"Point","coordinates":[-78.552403,-0.397894]}},{"type":"Feature","properties":{"cod_catast":"","area_terre":"","area_contr":"","descr":"Área verde","nombre":"Propiedad Municipal","tipologia":"BANCO DE SUELO","parroquia":"TAMBILLO","ambito":"","category":"banco-suelo","source":"GAD Mejía | banco de suelo municipal"},"geometry":{"type":"Point","coordinates":[-78.556221,-0.397504]}},{"type":"Feature","properties":{"cod_catast":"","area_terre":"","area_contr":"","descr":"Área verde","nombre":"Propiedad Municipal","tipologia":"BANCO DE SUELO","parroquia":"TAMBILLO","ambito":"","category":"banco-suelo","source":"GAD Mejía | banco de suelo municipal"},"geometry":{"type":"Point","coordinates":[-78.552355,-0.401008]}},{"type":"Feature","properties":{"cod_catast":"","area_terre":"","area_contr":"","descr":"Área verde","nombre":"Propiedad Municipal","tipologia":"BANCO DE SUELO","parroquia":"TAMBILLO","ambito":"","category":"banco-suelo","source":"GAD Mejía | banco de suelo municipal"},"geometry":{"type":"Point","coordinates":[-78.550693,-0.397921]}},{"type":"Feature","properties":{"cod_catast":"1703520104019021000","area_terre":"1889.4100","area_contr":"","descr":"Área verde","nombre":"Propiedad Municipal","tipologia":"BANCO DE SUELO","parroquia":"ALOASÍ","ambito":"Urbano","category":"banco-suelo","source":"GAD Mejía | banco de suelo municipal"},"geometry":{"type":"Point","coordinates":[-78.593545,-0.521938]}},{"type":"Feature","properties":{"cod_catast":"1703520104004024000","area_terre":"1643.8159","area_contr":"","descr":"Área verde","nombre":"Propiedad Municipal","tipologia":"BANCO DE SUELO","parroquia":"ALOASÍ","ambito":"Urbano","category":"banco-suelo","source":"GAD Mejía | banco de suelo municipal"},"geometry":{"type":"Point","coordinates":[-78.590317,-0.519758]}},{"type":"Feature","properties":{"cod_catast":"1703520104016011000","area_terre":"1964.1600","area_contr":"","descr":"Área verde","nombre":"Propiedad Municipal","tipologia":"BANCO DE SUELO","parroquia":"ALOASÍ","ambito":"Urbano","category":"banco-suelo","source":"GAD Mejía | banco de suelo municipal"},"geometry":{"type":"Point","coordinates":[-78.592895,-0.522983]}},{"type":"Feature","properties":{"cod_catast":"","area_terre":"","area_contr":"","descr":"Área verde","nombre":"Propiedad Municipal","tipologia":"BANCO DE SUELO","parroquia":"TAMBILLO","ambito":"","category":"banco-suelo","source":"GAD Mejía | banco de suelo municipal"},"geometry":{"type":"Point","coordinates":[-78.551877,-0.394402]}},{"type":"Feature","properties":{"cod_catast":"1703500106060001000","area_terre":"3105.3000","area_contr":"","descr":"Área verde","nombre":"Propiedad Municipal","tipologia":"BANCO DE SUELO","parroquia":"MACHACHI","ambito":"Urbano","category":"banco-suelo","source":"GAD Mejía | banco de suelo municipal"},"geometry":{"type":"Point","coordinates":[-78.560246,-0.508552]}},{"type":"Feature","properties":{"cod_catast":"","area_terre":"","area_contr":"","descr":"Área verde","nombre":"Propiedad Municipal","tipologia":"BANCO DE SUELO","parroquia":"ALOAG","ambito":"","category":"banco-suelo","source":"GAD Mejía | banco de suelo municipal"},"geometry":{"type":"Point","coordinates":[-78.593946,-0.466915]}},{"type":"Feature","properties":{"cod_catast":"","area_terre":"","area_contr":"","descr":"Área verde","nombre":"Propiedad Municipal","tipologia":"BANCO DE SUELO","parroquia":"ALOAG","ambito":"","category":"banco-suelo","source":"GAD Mejía | banco de suelo municipal"},"geometry":{"type":"Point","coordinates":[-78.595709,-0.468423]}},{"type":"Feature","properties":{"cod_catast":"","area_terre":"","area_contr":"","descr":"Área verde","nombre":"Propiedad Municipal","tipologia":"BANCO DE SUELO","parroquia":"TAMBILLO","ambito":"","category":"banco-suelo","source":"GAD Mejía | banco de suelo municipal"},"geometry":{"type":"Point","coordinates":[-78.551669,-0.400285]}},{"type":"Feature","properties":{"cod_catast":"","area_terre":"","area_contr":"","descr":"Área verde","nombre":"Propiedad Municipal","tipologia":"BANCO DE SUELO","parroquia":"ALOASÍ","ambito":"","category":"banco-suelo","source":"GAD Mejía | banco de suelo municipal"},"geometry":{"type":"Point","coordinates":[-78.579907,-0.505948]}},{"type":"Feature","properties":{"cod_catast":"","area_terre":"","area_contr":"","descr":"Área verde","nombre":"Propiedad Municipal","tipologia":"BANCO DE SUELO","parroquia":"ALOASÍ","ambito":"","category":"banco-suelo","source":"GAD Mejía | banco de suelo municipal"},"geometry":{"type":"Point","coordinates":[-78.579113,-0.505798]}},{"type":"Feature","properties":{"cod_catast":"1703500106056035000","area_terre":"2354.6000","area_contr":"","descr":"Área verde","nombre":"Propiedad Municipal","tipologia":"BANCO DE SUELO","parroquia":"MACHACHI","ambito":"Urbano","category":"banco-suelo","source":"GAD Mejía | banco de suelo municipal"},"geometry":{"type":"Point","coordinates":[-78.558238,-0.507496]}},{"type":"Feature","properties":{"cod_catast":"1703500106056034000","area_terre":"1774.3600","area_contr":"","descr":"Área verde","nombre":"Propiedad Municipal","tipologia":"BANCO DE SUELO","parroquia":"MACHACHI","ambito":"Urbano","category":"banco-suelo","source":"GAD Mejía | banco de suelo municipal"},"geometry":{"type":"Point","coordinates":[-78.558649,-0.507712]}},{"type":"Feature","properties":{"cod_catast":"1703520104004022000","area_terre":"1847.1335","area_contr":"","descr":"Área verde","nombre":"Propiedad Municipal","tipologia":"BANCO DE SUELO","parroquia":"ALOASÍ","ambito":"Urbano","category":"banco-suelo","source":"GAD Mejía | banco de suelo municipal"},"geometry":{"type":"Point","coordinates":[-78.590362,-0.520261]}},{"type":"Feature","properties":{"cod_catast":"1703520104004081000","area_terre":"3366.4500","area_contr":"120.4500","descr":"Área verde","nombre":"Propiedad Municipal","tipologia":"BANCO DE SUELO","parroquia":"ALOASÍ","ambito":"Urbano","category":"banco-suelo","source":"GAD Mejía | banco de suelo municipal"},"geometry":{"type":"Point","coordinates":[-78.593043,-0.520851]}},{"type":"Feature","properties":{"cod_catast":"1703520104019020000","area_terre":"365.4200","area_contr":"","descr":"Área verde","nombre":"Propiedad Municipal","tipologia":"BANCO DE SUELO","parroquia":"ALOASÍ","ambito":"Urbano","category":"banco-suelo","source":"GAD Mejía | banco de suelo municipal"},"geometry":{"type":"Point","coordinates":[-78.593621,-0.522029]}},{"type":"Feature","properties":{"cod_catast":"","area_terre":"","area_contr":"","descr":"Área verde","nombre":"Propiedad Municipal","tipologia":"BANCO DE SUELO","parroquia":"ALOASÍ","ambito":"","category":"banco-suelo","source":"GAD Mejía | banco de suelo municipal"},"geometry":{"type":"Point","coordinates":[-78.578795,-0.505814]}},{"type":"Feature","properties":{"cod_catast":"","area_terre":"","area_contr":"","descr":"Área verde","nombre":"Propiedad Municipal","tipologia":"BANCO DE SUELO","parroquia":"TAMBILLO","ambito":"","category":"banco-suelo","source":"GAD Mejía | banco de suelo municipal"},"geometry":{"type":"Point","coordinates":[-78.551962,-0.395711]}}]}