{"type":"FeatureCollection","features":[{"type":"Feature","properties":{"objectId":1,"fcode":"LINEA_AT_1","tde":"ALTA TENSION","obs":"LOTE SE ENCUENTRA AFECTADO POR EL CRUCE DE UNA RED DE ALTA TENSION","resguardoM":30.0,"category":"alta-tension","source":"GAD Mejía | infraestructura de servicios básicos"},"geometry":{"type":"LineString","coordinates":[[-78.599195,-0.612209],[-78.599227,-0.611993],[-78.598952,-0.609158],[-78.598537,-0.604924],[-78.598223,-0.601667],[-78.597951,-0.598823],[-78.597875,-0.598096],[-78.597732,-0.596625]]}},{"type":"Feature","properties":{"objectId":2,"fcode":"LINEA_AT_2","tde":"ALTA TENSION","obs":"LOTE SE ENCUENTRA AFECTADO POR EL CRUCE DE UNA RED DE ALTA TENSION","resguardoM":30.0,"category":"alta-tension","source":"GAD Mejía | infraestructura de servicios básicos"},"geometry":{"type":"LineString","coordinates":[[-78.605376,-0.609041],[-78.605491,-0.608138],[-78.605806,-0.605767],[-78.606385,-0.601631],[-78.606891,-0.597738],[-78.607042,-0.596629]]}},{"type":"Feature","properties":{"objectId":3,"fcode":"LINEA_AT_3","tde":"ALTA TENSION","obs":"LOTE SE ENCUENTRA AFECTADO POR EL CRUCE DE UNA RED DE ALTA TENSION","resguardoM":30.0,"category":"alta-tension","source":"GAD Mejía | infraestructura de servicios básicos"},"geometry":{"type":"LineString","coordinates":[[-78.571056,-0.463075],[-78.572814,-0.463536],[-78.575224,-0.464086],[-78.578231,-0.464701],[-78.577639,-0.46633],[-78.577894,-0.466839],[-78.577943,-0.467002]]}},{"type":"Feature","properties":{"objectId":4,"fcode":"LINEA_AT_4","tde":"ALTA TENSION","obs":"LOTE SE ENCUENTRA AFECTADO POR EL CRUCE DE UNA RED DE ALTA TENSION","resguardoM":30.0,"category":"alta-tension","source":"GAD Mejía | infraestructura de servicios básicos"},"geometry":{"type":"LineString","coordinates":[[-78.552658,-0.460383],[-78.552911,-0.460972],[-78.552917,-0.461079]]}},{"type":"Feature","properties":{"objectId":5,"fcode":"LINEA_AT_5","tde":"ALTA TENSION","obs":"LOTE SE ENCUENTRA AFECTADO POR EL CRUCE DE UNA RED DE ALTA TENSION","resguardoM":30.0,"category":"alta-tension","source":"GAD Mejía | infraestructura de servicios básicos"},"geometry":{"type":"LineString","coordinates":[[-78.523493,-0.360235],[-78.525264,-0.360584],[-78.526728,-0.360872],[-78.532901,-0.361062],[-78.534328,-0.361048],[-78.535645,-0.361132]]}},{"type":"Feature","properties":{"objectId":6,"fcode":"LINEA_AT_6","tde":"ALTA TENSION","obs":"LOTE SE ENCUENTRA AFECTADO POR EL CRUCE DE UNA RED DE ALTA TENSION","resguardoM":30.0,"category":"alta-tension","source":"GAD Mejía | infraestructura de servicios básicos"},"geometry":{"type":"LineString","coordinates":[[-78.535645,-0.361132],[-78.535847,-0.361512],[-78.536231,-0.362216],[-78.536418,-0.362341],[-78.536214,-0.362703],[-78.536693,-0.36302],[-78.536922,-0.363156],[-78.537064,-0.363353],[-78.537533,-0.363704],[-78.537913,-0.363804]]}},{"type":"Feature","properties":{"objectId":7,"fcode":"LINEA_AT_7","tde":"ALTA TENSION","obs":"LOTE SE ENCUENTRA AFECTADO POR EL CRUCE DE UNA RED DE ALTA TENSION","resguardoM":30.0,"category":"alta-tension","source":"GAD Mejía | infraestructura de servicios básicos"},"geometry":{"type":"LineString","coordinates":[[-78.537574,-0.364317],[-78.537327,-0.364015],[-78.53683,-0.363705],[-78.536292,-0.36338],[-78.535448,-0.36251]]}},{"type":"Feature","properties":{"objectId":8,"fcode":"LINEA_AT_8","tde":"ALTA TENSION","obs":"LOTE SE ENCUENTRA AFECTADO POR EL CRUCE DE UNA RED DE ALTA TENSION","resguardoM":30.0,"category":"alta-tension","source":"GAD Mejía | infraestructura de servicios básicos"},"geometry":{"type":"LineString","coordinates":[[-78.537303,-0.362996],[-78.538156,-0.363554],[-78.538683,-0.362827],[-78.53914,-0.36311],[-78.538992,-0.363552],[-78.540067,-0.364325],[-78.541667,-0.364402],[-78.542456,-0.364445],[-78.546025,-0.363067],[-78.547395,-0.361384],[-78.549931,-0.359697],[-78.55544,-0.358803],[-78.558309,-0.357687],[-78.56228,-0.356153],[-78.566479,-0.354521],[-78.570333,-0.353032],[-78.571658,-0.350155],[-78.571753,-0.349948]]}},{"type":"Feature","properties":{"objectId":9,"fcode":"LINEA_AT_9","tde":"ALTA TENSION","obs":"LOTE SE ENCUENTRA AFECTADO POR EL CRUCE DE UNA RED DE ALTA TENSION","resguardoM":30.0,"category":"alta-tension","source":"GAD Mejía | infraestructura de servicios básicos"},"geometry":{"type":"LineString","coordinates":[[-78.560932,-0.352532],[-78.560735,-0.353183],[-78.559576,-0.354696],[-78.557183,-0.357722],[-78.55589,-0.358025],[-78.553251,-0.358617],[-78.550899,-0.359147],[-78.548222,-0.359749],[-78.544153,-0.360662],[-78.541667,-0.361203],[-78.538503,-0.361921],[-78.537452,-0.362365],[-78.536368,-0.363141],[-78.535881,-0.362599],[-78.536049,-0.362394]]}},{"type":"Feature","properties":{"objectId":10,"fcode":"LINEA_AT_10","tde":"ALTA TENSION","obs":"LOTE SE ENCUENTRA AFECTADO POR EL CRUCE DE UNA RED DE ALTA TENSION","resguardoM":30.0,"category":"alta-tension","source":"GAD Mejía | infraestructura de servicios básicos"},"geometry":{"type":"LineString","coordinates":[[-78.538666,-0.364028],[-78.539136,-0.364394],[-78.540548,-0.366097],[-78.541667,-0.36743],[-78.543055,-0.369079],[-78.545068,-0.371496],[-78.5469,-0.373689],[-78.548005,-0.375],[-78.548632,-0.375777],[-78.55066,-0.378212],[-78.552613,-0.380538],[-78.555292,-0.382519],[-78.558496,-0.384867],[-78.562644,-0.387934],[-78.565922,-0.39033],[-78.570017,-0.394318],[-78.573583,-0.397782],[-78.575808,-0.399937],[-78.578495,-0.40257],[-78.581547,-0.405493],[-78.583333,-0.407222],[-78.58519,-0.409056],[-78.587687,-0.411471],[-78.5901,-0.413826],[-78.593011,-0.416667],[-78.594287,-0.417878],[-78.596703,-0.420226],[-78.599065,-0.422821],[-78.60078,-0.424707],[-78.604032,-0.428313],[-78.607855,-0.43253],[-78.611058,-0.436078],[-78.613483,-0.43878],[-78.616226,-0.441821],[-78.619049,-0.444933],[-78.621703,-0.447877],[-78.62318,-0.449522],[-78.625,-0.449093],[-78.626499,-0.448736],[-78.630228,-0.447848],[-78.635533,-0.446946],[-78.638792,-0.446274],[-78.642655,-0.447491],[-78.650144,-0.451269],[-78.653061,-0.450907],[-78.66215,-0.450263],[-78.664041,-0.449206],[-78.666667,-0.447777],[-78.66754,-0.447305],[-78.66996,-0.446037],[-78.673921,-0.443772],[-78.675789,-0.442812],[-78.677297,-0.441852],[-78.685337,-0.441545],[-78.691619,-0.440119],[-78.694283,-0.439422],[-78.699486,-0.439373],[-78.704102,-0.437324],[-78.708013,-0.437585],[-78.708333,-0.437607],[-78.709919,-0.437712],[-78.712965,-0.438174],[-78.721208,-0.438321],[-78.722956,-0.438382],[-78.727038,-0.438244],[-78.731538,-0.438077],[-78.736549,-0.436232],[-78.742698,-0.435564],[-78.746463,-0.43475],[-78.75,-0.434987],[-78.752506,-0.435165],[-78.758578,-0.4354],[-78.762624,-0.435667],[-78.7665,-0.435915],[-78.770444,-0.436179],[-78.778582,-0.437265],[-78.784015,-0.432715],[-78.785255,-0.432124],[-78.789245,-0.428297],[-78.791479,-0.424142],[-78.791667,-0.423826],[-78.792772,-0.421917],[-78.793955,-0.419931],[-78.795944,-0.416667],[-78.797064,-0.414847],[-78.798858,-0.411904],[-78.80049,-0.409363],[-78.802893,-0.406318]]}},{"type":"Feature","properties":{"objectId":11,"fcode":"LINEA_AT_11","tde":"ALTA TENSION","obs":"LOTE SE ENCUENTRA AFECTADO POR EL CRUCE DE UNA RED DE ALTA TENSION","resguardoM":30.0,"category":"alta-tension","source":"GAD Mejía | infraestructura de servicios básicos"},"geometry":{"type":"LineString","coordinates":[[-78.571056,-0.463075],[-78.569944,-0.462903],[-78.56719,-0.462179],[-78.565759,-0.45953],[-78.56467,-0.458333],[-78.563005,-0.456495],[-78.561321,-0.456746],[-78.558886,-0.456984],[-78.557958,-0.458333],[-78.557155,-0.459495],[-78.555254,-0.460403],[-78.553391,-0.461186],[-78.552658,-0.460383]]}},{"type":"Feature","properties":{"objectId":12,"fcode":"LINEA_AT_12","tde":"ALTA TENSION","obs":"LOTE SE ENCUENTRA AFECTADO POR EL CRUCE DE UNA RED DE ALTA TENSION","resguardoM":30.0,"category":"alta-tension","source":"GAD Mejía | infraestructura de servicios básicos"},"geometry":{"type":"LineString","coordinates":[[-78.597732,-0.596625],[-78.597557,-0.594835],[-78.597288,-0.592016],[-78.597129,-0.590313],[-78.596898,-0.587962],[-78.596618,-0.585123],[-78.596442,-0.583333],[-78.596204,-0.580853],[-78.595936,-0.578057],[-78.595646,-0.575078],[-78.595366,-0.572161],[-78.595035,-0.56874],[-78.594759,-0.565943],[-78.594455,-0.562734],[-78.59416,-0.559625],[-78.593858,-0.556571],[-78.593558,-0.55348],[-78.593257,-0.550332],[-78.59296,-0.547259],[-78.592645,-0.543984],[-78.592416,-0.541667],[-78.592318,-0.540733],[-78.592033,-0.537769],[-78.591745,-0.534875],[-78.591471,-0.532005],[-78.591161,-0.52892],[-78.590965,-0.526813],[-78.590702,-0.524185],[-78.59049,-0.521731],[-78.590238,-0.519303],[-78.59003,-0.5171],[-78.589765,-0.514454],[-78.588722,-0.511534],[-78.587578,-0.508422],[-78.58678,-0.506258],[-78.585862,-0.503704],[-78.58488,-0.501019],[-78.584511,-0.5],[-78.583659,-0.497679],[-78.583333,-0.496816],[-78.582818,-0.49532],[-78.58154,-0.491802],[-78.580264,-0.488305],[-78.578994,-0.484849],[-78.578021,-0.482175],[-78.57688,-0.479017],[-78.575753,-0.475938],[-78.574608,-0.472799],[-78.573448,-0.469645],[-78.572292,-0.466466],[-78.571056,-0.463075]]}},{"type":"Feature","properties":{"objectId":13,"fcode":"LINEA_AT_13","tde":"ALTA TENSION","obs":"LOTE SE ENCUENTRA AFECTADO POR EL CRUCE DE UNA RED DE ALTA TENSION","resguardoM":30.0,"category":"alta-tension","source":"GAD Mejía | infraestructura de servicios básicos"},"geometry":{"type":"LineString","coordinates":[[-78.552658,-0.460383],[-78.55239,-0.458333],[-78.552212,-0.45712],[-78.551791,-0.45426],[-78.551367,-0.451359],[-78.550631,-0.44648],[-78.550002,-0.441985],[-78.549784,-0.440488],[-78.54924,-0.436786],[-78.548918,-0.434474],[-78.548783,-0.434156],[-78.547769,-0.431769],[-78.546881,-0.429822],[-78.544922,-0.427302],[-78.543195,-0.424678],[-78.541941,-0.421055],[-78.541667,-0.419907],[-78.541499,-0.419213],[-78.540825,-0.416914],[-78.540736,-0.416667],[-78.539896,-0.414445],[-78.538789,-0.411987],[-78.537676,-0.409534],[-78.536342,-0.406602],[-78.535796,-0.403037],[-78.534865,-0.397003],[-78.534566,-0.39505],[-78.533282,-0.390637],[-78.532603,-0.388336],[-78.531593,-0.38482],[-78.532251,-0.382876],[-78.532814,-0.379166],[-78.533312,-0.375834],[-78.533396,-0.375],[-78.533658,-0.372673],[-78.534573,-0.367533],[-78.53492,-0.365583],[-78.534453,-0.363052]]}},{"type":"Feature","properties":{"objectId":14,"fcode":"LINEA_AT_14","tde":"ALTA TENSION","obs":"LOTE SE ENCUENTRA AFECTADO POR EL CRUCE DE UNA RED DE ALTA TENSION","resguardoM":30.0,"category":"alta-tension","source":"GAD Mejía | infraestructura de servicios básicos"},"geometry":{"type":"LineString","coordinates":[[-78.958822,-0.314357],[-78.958333,-0.314407],[-78.955748,-0.314673],[-78.951918,-0.315804],[-78.948719,-0.315941],[-78.944773,-0.316104],[-78.940897,-0.316264],[-78.937613,-0.316401],[-78.934592,-0.316514],[-78.931189,-0.31929],[-78.926435,-0.32314],[-78.924371,-0.324826],[-78.921826,-0.327492],[-78.91973,-0.329638],[-78.916667,-0.332809]]}},{"type":"Feature","properties":{"objectId":15,"fcode":"LINEA_AT_15","tde":"ALTA TENSION","obs":"LOTE SE ENCUENTRA AFECTADO POR EL CRUCE DE UNA RED DE ALTA TENSION","resguardoM":30.0,"category":"alta-tension","source":"GAD Mejía | infraestructura de servicios básicos"},"geometry":{"type":"LineString","coordinates":[[-78.533253,-0.354547],[-78.533318,-0.354783],[-78.533842,-0.356684],[-78.535173,-0.361556],[-78.535448,-0.36251]]}},{"type":"Feature","properties":{"objectId":16,"fcode":"LINEA_AT_16","tde":"ALTA TENSION","obs":"LOTE SE ENCUENTRA AFECTADO POR EL CRUCE DE UNA RED DE ALTA TENSION","resguardoM":30.0,"category":"alta-tension","source":"GAD Mejía | infraestructura de servicios básicos"},"geometry":{"type":"LineString","coordinates":[[-78.571056,-0.463075],[-78.569973,-0.460123],[-78.569313,-0.458333],[-78.568439,-0.455903],[-78.567337,-0.449746],[-78.56672,-0.446256],[-78.566168,-0.443166],[-78.56567,-0.440377],[-78.565142,-0.437425],[-78.564847,-0.435747],[-78.564445,-0.433486],[-78.564063,-0.431339],[-78.563343,-0.42728],[-78.562616,-0.4232],[-78.561974,-0.419575],[-78.561541,-0.417075],[-78.561469,-0.416667],[-78.560844,-0.413157],[-78.560244,-0.409794],[-78.559266,-0.404297],[-78.558586,-0.400439],[-78.558322,-0.398988],[-78.555197,-0.394159],[-78.553969,-0.392277],[-78.550636,-0.387123],[-78.547917,-0.382967],[-78.546193,-0.380294],[-78.544491,-0.377664],[-78.543494,-0.376139],[-78.542765,-0.375],[-78.542311,-0.374321],[-78.541667,-0.373315],[-78.540956,-0.372209],[-78.539456,-0.369894],[-78.53743,-0.366767],[-78.535471,-0.363754],[-78.535448,-0.36251]]}},{"type":"Feature","properties":{"objectId":17,"fcode":"LINEA_AT_17","tde":"ALTA TENSION","obs":"LOTE SE ENCUENTRA AFECTADO POR EL CRUCE DE UNA RED DE ALTA TENSION","resguardoM":30.0,"category":"alta-tension","source":"GAD Mejía | infraestructura de servicios básicos"},"geometry":{"type":"LineString","coordinates":[[-78.523264,-0.360522],[-78.5237,-0.360594],[-78.525919,-0.360953],[-78.533526,-0.362269],[-78.534614,-0.362828],[-78.535557,-0.363315],[-78.536119,-0.363611],[-78.536714,-0.363893],[-78.537014,-0.364085],[-78.537306,-0.364281]]}},{"type":"Feature","properties":{"objectId":18,"fcode":"LINEA_AT_18","tde":"ALTA TENSION","obs":"LOTE SE ENCUENTRA AFECTADO POR EL CRUCE DE UNA RED DE ALTA TENSION","resguardoM":30.0,"category":"alta-tension","source":"GAD Mejía | infraestructura de servicios básicos"},"geometry":{"type":"LineString","coordinates":[[-78.535944,-0.362259],[-78.53571,-0.362106],[-78.534453,-0.363052]]}},{"type":"Feature","properties":{"objectId":19,"fcode":"LINEA_AT_19","tde":"ALTA TENSION","obs":"LOTE SE ENCUENTRA AFECTADO POR EL CRUCE DE UNA RED DE ALTA TENSION","resguardoM":30.0,"category":"alta-tension","source":"GAD Mejía | infraestructura de servicios básicos"},"geometry":{"type":"LineString","coordinates":[[-78.534453,-0.363052],[-78.534402,-0.362719],[-78.53424,-0.361649],[-78.534303,-0.361206],[-78.535645,-0.361132]]}},{"type":"Feature","properties":{"objectId":20,"fcode":"LINEA_AT_20","tde":"ALTA TENSION","obs":"LOTE SE ENCUENTRA AFECTADO POR EL CRUCE DE UNA RED DE ALTA TENSION","resguardoM":30.0,"category":"alta-tension","source":"GAD Mejía | infraestructura de servicios básicos"},"geometry":{"type":"LineString","coordinates":[[-78.607042,-0.596629],[-78.607597,-0.592535],[-78.60824,-0.587735],[-78.608771,-0.583705],[-78.608839,-0.583333],[-78.609337,-0.579662],[-78.60976,-0.576695],[-78.609035,-0.57373],[-78.608023,-0.569607],[-78.60702,-0.565483],[-78.605871,-0.560739],[-78.604914,-0.556825],[-78.60405,-0.553259],[-78.604051,-0.553259],[-78.603079,-0.549301],[-78.601995,-0.544797],[-78.60122,-0.541667],[-78.600998,-0.540806],[-78.600165,-0.53742],[-78.599361,-0.534075],[-78.598298,-0.529709],[-78.597135,-0.524906],[-78.596043,-0.520392],[-78.59592,-0.519864],[-78.595058,-0.516411],[-78.594068,-0.512338],[-78.59317,-0.50864],[-78.592086,-0.504125],[-78.591127,-0.5],[-78.590736,-0.498403],[-78.589595,-0.493943],[-78.588995,-0.49145],[-78.588403,-0.489051],[-78.589717,-0.48371],[-78.590724,-0.479592],[-78.591841,-0.475126],[-78.593293,-0.469562],[-78.594036,-0.466498],[-78.595285,-0.46131],[-78.595984,-0.458333],[-78.596475,-0.456334],[-78.597423,-0.452503],[-78.598373,-0.448618],[-78.596398,-0.44586],[-78.594491,-0.443167],[-78.591947,-0.439606],[-78.588998,-0.435436],[-78.586626,-0.432097],[-78.583783,-0.428099],[-78.583333,-0.427408],[-78.581196,-0.424419],[-78.578596,-0.420756],[-78.57629,-0.417512],[-78.575693,-0.416667],[-78.5714,-0.410657],[-78.568482,-0.406519],[-78.566149,-0.403251],[-78.562186,-0.397671],[-78.5599,-0.395142],[-78.557084,-0.391991],[-78.553766,-0.388324],[-78.551653,-0.385977],[-78.550034,-0.384198],[-78.549919,-0.38147],[-78.54974,-0.377651],[-78.547334,-0.375],[-78.546987,-0.374637],[-78.544363,-0.371493],[-78.541667,-0.368118],[-78.54106,-0.367351],[-78.538908,-0.364825],[-78.538447,-0.364358]]}},{"type":"Feature","properties":{"objectId":21,"fcode":"LINEA_AT_21","tde":"ALTA TENSION","obs":"LOTE SE ENCUENTRA AFECTADO POR EL CRUCE DE UNA RED DE ALTA TENSION","resguardoM":30.0,"category":"alta-tension","source":"GAD Mejía | infraestructura de servicios básicos"},"geometry":{"type":"LineString","coordinates":[[-78.536037,-0.354479],[-78.536381,-0.356295],[-78.537397,-0.361872],[-78.536888,-0.362654],[-78.536656,-0.36249]]}},{"type":"Feature","properties":{"objectId":22,"fcode":"LINEA_AT_22","tde":"ALTA TENSION","obs":"LOTE SE ENCUENTRA AFECTADO POR EL CRUCE DE UNA RED DE ALTA TENSION","resguardoM":30.0,"category":"alta-tension","source":"GAD Mejía | infraestructura de servicios básicos"},"geometry":{"type":"LineString","coordinates":[[-78.916667,-0.332809],[-78.916466,-0.33306],[-78.916207,-0.333333],[-78.911037,-0.338705],[-78.907564,-0.342316],[-78.906095,-0.343857],[-78.903035,-0.346837],[-78.901964,-0.348159],[-78.901952,-0.348169],[-78.89364,-0.347678],[-78.88889,-0.347396],[-78.88601,-0.347219],[-78.878291,-0.346772],[-78.875,-0.346495],[-78.873322,-0.346368],[-78.870677,-0.347577],[-78.865747,-0.349747],[-78.862427,-0.351147],[-78.857343,-0.353305],[-78.85431,-0.354618],[-78.848761,-0.35698],[-78.844726,-0.358706],[-78.841708,-0.3599],[-78.834834,-0.362035],[-78.833112,-0.36469],[-78.829837,-0.369737],[-78.82712,-0.374649],[-78.826672,-0.375],[-78.825673,-0.375747],[-78.82212,-0.379413],[-78.820338,-0.380973],[-78.818503,-0.382477],[-78.816971,-0.384626],[-78.814378,-0.388305],[-78.812738,-0.390627],[-78.811654,-0.39367],[-78.809939,-0.398432],[-78.806023,-0.402956],[-78.803568,-0.405796],[-78.802893,-0.406318]]}},{"type":"Feature","properties":{"objectId":23,"fcode":"LINEA_AT_23","tde":"ALTA TENSION","obs":"LOTE SE ENCUENTRA AFECTADO POR EL CRUCE DE UNA RED DE ALTA TENSION","resguardoM":30.0,"category":"alta-tension","source":"GAD Mejía | infraestructura de servicios básicos"},"geometry":{"type":"LineString","coordinates":[[-78.57993,-0.529348],[-78.578602,-0.529753],[-78.577444,-0.527863],[-78.576859,-0.527725],[-78.575602,-0.527417]]}},{"type":"Feature","properties":{"objectId":24,"fcode":"LINEA_AT_24","tde":"ALTA TENSION","obs":"LOTE SE ENCUENTRA AFECTADO POR EL CRUCE DE UNA RED DE ALTA TENSION","resguardoM":30.0,"category":"alta-tension","source":"GAD Mejía | infraestructura de servicios básicos"},"geometry":{"type":"LineString","coordinates":[[-78.578601,-0.529753],[-78.579685,-0.531552],[-78.577933,-0.53219]]}},{"type":"Feature","properties":{"objectId":25,"fcode":"LINEA_AT_25","tde":"ALTA TENSION","obs":"LOTE SE ENCUENTRA AFECTADO POR EL CRUCE DE UNA RED DE ALTA TENSION","resguardoM":30.0,"category":"alta-tension","source":"GAD Mejía | infraestructura de servicios básicos"},"geometry":{"type":"LineString","coordinates":[[-78.578603,-0.529754],[-78.579685,-0.531557],[-78.577927,-0.532192]]}},{"type":"Feature","properties":{"objectId":26,"fcode":"LINEA_AT_26","tde":"ALTA TENSION","obs":"LOTE SE ENCUENTRA AFECTADO POR EL CRUCE DE UNA RED DE ALTA TENSION","resguardoM":30.0,"category":"alta-tension","source":"GAD Mejía | infraestructura de servicios básicos"},"geometry":{"type":"LineString","coordinates":[[-78.578615,-0.529748],[-78.579694,-0.531551],[-78.577923,-0.532189]]}},{"type":"Feature","properties":{"objectId":27,"fcode":"LINEA_AT_27","tde":"ALTA TENSION","obs":"LOTE SE ENCUENTRA AFECTADO POR EL CRUCE DE UNA RED DE ALTA TENSION","resguardoM":30.0,"category":"alta-tension","source":"GAD Mejía | infraestructura de servicios básicos"},"geometry":{"type":"LineString","coordinates":[[-78.578584,-0.529733],[-78.579688,-0.53155],[-78.57793,-0.532183]]}},{"type":"Feature","properties":{"objectId":28,"fcode":"LINEA_AT_28","tde":"ALTA TENSION","obs":"LOTE SE ENCUENTRA AFECTADO POR EL CRUCE DE UNA RED DE ALTA TENSION","resguardoM":30.0,"category":"alta-tension","source":"GAD Mejía | infraestructura de servicios básicos"},"geometry":{"type":"LineString","coordinates":[[-78.531334,-0.382378],[-78.530307,-0.383755],[-78.530344,-0.387735],[-78.530638,-0.390652],[-78.530875,-0.392556],[-78.528233,-0.39509],[-78.524802,-0.396151],[-78.521286,-0.397757],[-78.517199,-0.399554],[-78.514671,-0.400635],[-78.512248,-0.401667],[-78.510214,-0.402566],[-78.507335,-0.403856],[-78.503163,-0.403166],[-78.501805,-0.403127],[-78.495419,-0.402226],[-78.493595,-0.402054],[-78.489072,-0.401421],[-78.486307,-0.401076],[-78.479989,-0.400203],[-78.477965,-0.399877],[-78.474136,-0.399446],[-78.468786,-0.398746],[-78.465195,-0.398295],[-78.461432,-0.398246]]}},{"type":"Feature","properties":{"objectId":29,"fcode":"LINEA_AT_29","tde":"ALTA TENSION","obs":"LOTE SE ENCUENTRA AFECTADO POR EL CRUCE DE UNA RED DE ALTA TENSION","resguardoM":30.0,"category":"alta-tension","source":"GAD Mejía | infraestructura de servicios básicos"},"geometry":{"type":"LineString","coordinates":[[-78.531343,-0.382357],[-78.531122,-0.380815],[-78.53284,-0.378742]]}}]}