{"type":"FeatureCollection","features":[{"type":"Feature","properties":{"parroquia":"Aloag","parcelCount":1729,"serviceIndex":64.8,"aguaPct":95.0,"alcantarilladoPct":84.6,"luzPct":71.3,"telefonoPct":8.4,"aguaNo":25,"alcantarilladoNo":143,"luzNo":119,"telefonoNo":852,"category":"servicios-basicos","source":"GAD Mejía | infraestructura de servicios básicos","summary":"Aloag registra agua 95.0%, alcantarillado 84.6%, luz 71.3% y telefono 8.4%."},"geometry":{"type":"Point","coordinates":[-78.5782,-0.467892]}},{"type":"Feature","properties":{"parroquia":"Aloasi","parcelCount":2130,"serviceIndex":34.3,"aguaPct":48.0,"alcantarilladoPct":30.4,"luzPct":47.7,"telefonoPct":11.0,"aguaNo":101,"alcantarilladoNo":477,"luzNo":107,"telefonoNo":889,"category":"servicios-basicos","source":"GAD Mejía | infraestructura de servicios básicos","summary":"Aloasi registra agua 48.0%, alcantarillado 30.4%, luz 47.7% y telefono 11.0%."},"geometry":{"type":"Point","coordinates":[-78.583647,-0.515205]}},{"type":"Feature","properties":{"parroquia":"Cutuglagua","parcelCount":10862,"serviceIndex":27.4,"aguaPct":39.8,"alcantarilladoPct":19.8,"luzPct":44.1,"telefonoPct":6.0,"aguaNo":1747,"alcantarilladoNo":3916,"luzNo":1277,"telefonoNo":5417,"category":"servicios-basicos","source":"GAD Mejía | infraestructura de servicios básicos","summary":"Cutuglagua registra agua 39.8%, alcantarillado 19.8%, luz 44.1% y telefono 6.0%."},"geometry":{"type":"Point","coordinates":[-78.553449,-0.373174]}},{"type":"Feature","properties":{"parroquia":"El Chaupi","parcelCount":207,"serviceIndex":43.5,"aguaPct":100.0,"alcantarilladoPct":35.7,"luzPct":36.7,"telefonoPct":1.4,"aguaNo":0,"alcantarilladoNo":2,"luzNo":0,"telefonoNo":73,"category":"servicios-basicos","source":"GAD Mejía | infraestructura de servicios básicos","summary":"El Chaupi registra agua 100.0%, alcantarillado 35.7%, luz 36.7% y telefono 1.4%."},"geometry":{"type":"Point","coordinates":[-78.642475,-0.602689]}},{"type":"Feature","properties":{"parroquia":"Machachi","parcelCount":10091,"serviceIndex":67.3,"aguaPct":99.4,"alcantarilladoPct":99.6,"luzPct":54.3,"telefonoPct":16.1,"aguaNo":58,"alcantarilladoNo":38,"luzNo":103,"telefonoNo":3960,"category":"servicios-basicos","source":"GAD Mejía | infraestructura de servicios básicos","summary":"Machachi registra agua 99.4%, alcantarillado 99.6%, luz 54.3% y telefono 16.1%."},"geometry":{"type":"Point","coordinates":[-78.564174,-0.495104]}},{"type":"Feature","properties":{"parroquia":"Manuel Cornejo Astorga","parcelCount":443,"serviceIndex":63.9,"aguaPct":99.3,"alcantarilladoPct":83.1,"luzPct":56.4,"telefonoPct":16.7,"aguaNo":3,"alcantarilladoNo":75,"luzNo":1,"telefonoNo":177,"category":"servicios-basicos","source":"GAD Mejía | infraestructura de servicios básicos","summary":"Manuel Cornejo Astorga registra agua 99.3%, alcantarillado 83.1%, luz 56.4% y telefono 16.7%."},"geometry":{"type":"Point","coordinates":[-78.79868,-0.416123]}},{"type":"Feature","properties":{"parroquia":"Tambillo","parcelCount":2509,"serviceIndex":49.0,"aguaPct":64.7,"alcantarilladoPct":49.2,"luzPct":64.6,"telefonoPct":17.7,"aguaNo":148,"alcantarilladoNo":537,"luzNo":149,"telefonoNo":1327,"category":"servicios-basicos","source":"GAD Mejía | infraestructura de servicios básicos","summary":"Tambillo registra agua 64.7%, alcantarillado 49.2%, luz 64.6% y telefono 17.7%."},"geometry":{"type":"Point","coordinates":[-78.544158,-0.41778]}},{"type":"Feature","properties":{"parroquia":"Uyumbicho","parcelCount":1395,"serviceIndex":57.1,"aguaPct":100.0,"alcantarilladoPct":49.1,"luzPct":56.5,"telefonoPct":22.9,"aguaNo":0,"alcantarilladoNo":259,"luzNo":5,"telefonoNo":474,"category":"servicios-basicos","source":"GAD Mejía | infraestructura de servicios básicos","summary":"Uyumbicho registra agua 100.0%, alcantarillado 49.1%, luz 56.5% y telefono 22.9%."},"geometry":{"type":"Point","coordinates":[-78.532762,-0.390038]}}]}