{
"type": "FeatureCollection",
"name": "ESTACION_PLUVIOMETRICA_P",
"crs": { "type": "name", "properties": { "name": "urn:ogc:def:crs:OGC:1.3:CRS84" } },
"features": [
{ "type": "Feature", "properties": { "fcode": "VA002", "descripcion": "ESTACIÓN DONDE SE REALIZAN MEDICIONES Y OBSERVACIONES PUNTUALES DE PRECIPITACIÓN    ", "cdi": "M577", "nam": "CAJAS PEDREGAL", "na2": "", "ppa": 1798.5, "pm_ene": 118.8, "pm_feb": 155.9, "pm_mar": 189.0, "pm_abr": 188.8, "pm_may": 181.7, "pm_jun": 156.4, "pm_jul": 162.6, "pm_ago": 114.6, "pm_sep": 135.7, "pm_oct": 149.7, "pm_nov": 127.1, "pm_dic": 118.2, "acp": null }, "geometry": { "type": "Point", "coordinates": [ -78.371666965349675, -0.636942984403004 ] } },
{ "type": "Feature", "properties": { "fcode": "VA002", "descripcion": "ESTACIÓN DONDE SE REALIZAN MEDICIONES Y OBSERVACIONES PUNTUALES DE PRECIPITACIÓN    ", "cdi": "M730", "nam": "LLULLUCHIS", "na2": "", "ppa": 1340.3, "pm_ene": 94.0, "pm_feb": 147.4, "pm_mar": 187.7, "pm_abr": 175.9, "pm_may": 125.6, "pm_jun": 64.8, "pm_jul": 50.6, "pm_ago": 58.1, "pm_sep": 94.1, "pm_oct": 117.1, "pm_nov": 106.0, "pm_dic": 119.2, "acp": null }, "geometry": { "type": "Point", "coordinates": [ -78.640319856096795, -0.615686298688241 ] } },
{ "type": "Feature", "properties": { "fcode": "VA002", "descripcion": "ESTACIÓN DONDE SE REALIZAN MEDICIONES Y OBSERVACIONES PUNTUALES DE PRECIPITACIÓN    ", "cdi": "M364", "nam": "LORETO PEDREGAL", "na2": "", "ppa": 1499.9, "pm_ene": 157.3, "pm_feb": 143.1, "pm_mar": 190.2, "pm_abr": 175.2, "pm_may": 131.6, "pm_jun": 57.4, "pm_jul": 39.2, "pm_ago": 32.2, "pm_sep": 85.3, "pm_oct": 166.7, "pm_nov": 159.2, "pm_dic": 162.6, "acp": null }, "geometry": { "type": "Point", "coordinates": [ -78.454781938869118, -0.525867893069245 ] } },
{ "type": "Feature", "properties": { "fcode": "VA002", "descripcion": "ESTACIÓN DONDE SE REALIZAN MEDICIONES Y OBSERVACIONES PUNTUALES DE PRECIPITACIÓN    ", "cdi": "M117", "nam": "MACHACHI", "na2": "", "ppa": 987.0, "pm_ene": 95.4, "pm_feb": 113.9, "pm_mar": 122.8, "pm_abr": 108.0, "pm_may": 90.5, "pm_jun": 55.5, "pm_jul": 31.0, "pm_ago": 40.1, "pm_sep": 79.6, "pm_oct": 81.7, "pm_nov": 88.4, "pm_dic": 80.1, "acp": null }, "geometry": { "type": "Point", "coordinates": [ -78.56700305234223, -0.508187299400492 ] } },
{ "type": "Feature", "properties": { "fcode": "VA002", "descripcion": "ESTACIÓN DONDE SE REALIZAN MEDICIONES Y OBSERVACIONES PUNTUALES DE PRECIPITACIÓN    ", "cdi": "M622", "nam": "RIO PITA AJ SALTO", "na2": "", "ppa": 1116.6, "pm_ene": 101.7, "pm_feb": 134.6, "pm_mar": 130.6, "pm_abr": 116.7, "pm_may": 55.4, "pm_jun": 68.2, "pm_jul": 41.0, "pm_ago": 29.1, "pm_sep": 56.3, "pm_oct": 138.8, "pm_nov": 138.2, "pm_dic": 106.2, "acp": null }, "geometry": { "type": "Point", "coordinates": [ -78.438363769949831, -0.496016971400529 ] } },
{ "type": "Feature", "properties": { "fcode": "VA002", "descripcion": "ESTACIÓN DONDE SE REALIZAN MEDICIONES Y OBSERVACIONES PUNTUALES DE PRECIPITACIÓN    ", "cdi": "M350", "nam": "HDA.LA GRANJA-ALOAG", "na2": "", "ppa": 1044.2, "pm_ene": 119.1, "pm_feb": 104.2, "pm_mar": 123.7, "pm_abr": 143.7, "pm_may": 120.4, "pm_jun": 39.2, "pm_jul": 39.0, "pm_ago": 35.0, "pm_sep": 69.9, "pm_oct": 88.1, "pm_nov": 70.7, "pm_dic": 91.3, "acp": null }, "geometry": { "type": "Point", "coordinates": [ -78.659761003254673, -0.47585965294428 ] } },
{ "type": "Feature", "properties": { "fcode": "VA002", "descripcion": "ESTACIÓN DONDE SE REALIZAN MEDICIONES Y OBSERVACIONES PUNTUALES DE PRECIPITACIÓN    ", "cdi": "M717", "nam": "TANDAPI INECEL", "na2": "", "ppa": 2109.4, "pm_ene": 296.3, "pm_feb": 301.2, "pm_mar": 311.5, "pm_abr": 315.0, "pm_may": 195.4, "pm_jun": 87.7, "pm_jul": 51.2, "pm_ago": 52.7, "pm_sep": 86.6, "pm_oct": 136.0, "pm_nov": 103.8, "pm_dic": 172.1, "acp": null }, "geometry": { "type": "Point", "coordinates": [ -78.798610456991327, -0.409999811019795 ] } },
{ "type": "Feature", "properties": { "fcode": "VA002", "descripcion": "ESTACIÓN DONDE SE REALIZAN MEDICIONES Y OBSERVACIONES PUNTUALES DE PRECIPITACIÓN    ", "cdi": "M113", "nam": "UYUMBICHO", "na2": "", "ppa": 1302.1, "pm_ene": 134.5, "pm_feb": 133.1, "pm_mar": 160.4, "pm_abr": 178.3, "pm_may": 146.5, "pm_jun": 53.5, "pm_jul": 34.2, "pm_ago": 28.0, "pm_sep": 82.8, "pm_oct": 94.3, "pm_nov": 118.2, "pm_dic": 138.5, "acp": null }, "geometry": { "type": "Point", "coordinates": [ -78.524806545965959, -0.390006773114051 ] } },
{ "type": "Feature", "properties": { "fcode": "VA002", "descripcion": "ESTACIÓN DONDE SE REALIZAN MEDICIONES Y OBSERVACIONES PUNTUALES DE PRECIPITACIÓN    ", "cdi": "M003", "nam": "IZOBAMBA", "na2": "", "ppa": 1446.9, "pm_ene": 138.4, "pm_feb": 149.2, "pm_mar": 180.6, "pm_abr": 202.5, "pm_may": 154.3, "pm_jun": 67.9, "pm_jul": 30.5, "pm_ago": 35.8, "pm_sep": 87.5, "pm_oct": 128.8, "pm_nov": 144.1, "pm_dic": 127.3, "acp": null }, "geometry": { "type": "Point", "coordinates": [ -78.555232830533598, -0.365953859049929 ] } },
{ "type": "Feature", "properties": { "fcode": "VA002", "descripcion": "ESTACIÓN DONDE SE REALIZAN MEDICIONES Y OBSERVACIONES PUNTUALES DE PRECIPITACIÓN    ", "cdi": "M355", "nam": "PILATON AJ TOACHI", "na2": "", "ppa": 2627.1, "pm_ene": 369.2, "pm_feb": 441.2, "pm_mar": 432.0, "pm_abr": 417.8, "pm_may": 235.2, "pm_jun": 143.9, "pm_jul": 66.3, "pm_ago": 58.9, "pm_sep": 99.5, "pm_oct": 77.7, "pm_nov": 75.4, "pm_dic": 210.1, "acp": null }, "geometry": { "type": "Point", "coordinates": [ -78.953064694147244, -0.316009498247705 ] } }
]
}
